{"type":"FeatureCollection","features":[{"type":"Feature","properties":{"id":0,"size":9.77},"geometry":{"type":"Point","coordinates":[-175.78629,89.90747]}},{"type":"Feature","properties":{"id":1,"size":4.06},"geometry":{"type":"Point","coordinates":[71.65033,87.74075]}},{"type":"Feature","properties":{"id":2,"size":5.53},"geometry":{"type":"Point","coordinates":[-12.15625,89.29488]}},{"type":"Feature","properties":{"id":3,"size":1.56},"geometry":{"type":"Point","coordinates":[82.73595,89.21456]}},{"type":"Feature","properties":{"id":4,"size":1.97},"geometry":{"type":"Point","coordinates":[95.07236,87.7605]}},{"type":"Feature","properties":{"id":5,"size":5.35},"geometry":{"type":"Point","coordinates":[-47.53491,89.0472]}},{"type":"Feature","properties":{"id":6,"size":2.48},"geometry":{"type":"Point","coordinates":[-73.32111,84.19739]}},{"type":"Feature","properties":{"id":7,"size":1.44},"geometry":{"type":"Point","coordinates":[136.00065,89.49998]}},{"type":"Feature","properties":{"id":8,"size":5.48},"geometry":{"type":"Point","coordinates":[-124.32815,89.05837]}},{"type":"Feature","properties":{"id":9,"size":9.13},"geometry":{"type":"Point","coordinates":[94.27453,89.87795]}},{"type":"Feature","properties":{"id":10,"size":6.8},"geometry":{"type":"Point","coordinates":[19.33587,87.05935]}},{"type":"Feature","properties":{"id":11,"size":9.21},"geometry":{"type":"Point","coordinates":[167.75629,87.03977]}},{"type":"Feature","properties":{"id":12,"size":1.75},"geometry":{"type":"Point","coordinates":[117.94625,89.95204]}},{"type":"Feature","properties":{"id":13,"size":0.2},"geometry":{"type":"Point","coordinates":[-51.48683,88.33575]}},{"type":"Feature","properties":{"id":14,"size":3.69},"geometry":{"type":"Point","coordinates":[-148.28176,85.96163]}},{"type":"Feature","properties":{"id":15,"size":9.46},"geometry":{"type":"Point","coordinates":[-26.38235,88.07495]}},{"type":"Feature","properties":{"id":16,"size":3.31},"geometry":{"type":"Point","coordinates":[73.18119,86.57378]}},{"type":"Feature","properties":{"id":17,"size":1.33},"geometry":{"type":"Point","coordinates":[-51.71957,89.68976]}},{"type":"Feature","properties":{"id":18,"size":1.9},"geometry":{"type":"Point","coordinates":[148.69255,88.9015]}},{"type":"Feature","properties":{"id":19,"size":0.44},"geometry":{"type":"Point","coordinates":[47.59515,88.82739]}},{"type":"Feature","properties":{"id":20,"size":5.48},"geometry":{"type":"Point","coordinates":[66.33136,84.69356]}},{"type":"Feature","properties":{"id":21,"size":9.2},"geometry":{"type":"Point","coordinates":[117.56791,86.81759]}},{"type":"Feature","properties":{"id":22,"size":6.49},"geometry":{"type":"Point","coordinates":[-137.8651,87.68539]}},{"type":"Feature","properties":{"id":23,"size":8.38},"geometry":{"type":"Point","coordinates":[140.78337,84.35198]}},{"type":"Feature","properties":{"id":24,"size":9.68},"geometry":{"type":"Point","coordinates":[33.92445,84.32221]}},{"type":"Feature","properties":{"id":25,"size":0.06},"geometry":{"type":"Point","coordinates":[17.48458,85.55682]}},{"type":"Feature","properties":{"id":26,"size":7.24},"geometry":{"type":"Point","coordinates":[5.78646,88.87261]}},{"type":"Feature","properties":{"id":27,"size":9.77},"geometry":{"type":"Point","coordinates":[17.81824,86.06059]}},{"type":"Feature","properties":{"id":28,"size":4.3},"geometry":{"type":"Point","coordinates":[20.7192,85.51898]}},{"type":"Feature","properties":{"id":29,"size":5.52},"geometry":{"type":"Point","coordinates":[51.2465,86.19176]}},{"type":"Feature","properties":{"id":30,"size":0.09},"geometry":{"type":"Point","coordinates":[-67.54182,89.30845]}},{"type":"Feature","properties":{"id":31,"size":8.33},"geometry":{"type":"Point","coordinates":[-171.33379,84.50215]}},{"type":"Feature","properties":{"id":32,"size":6.19},"geometry":{"type":"Point","coordinates":[47.01651,89.98963]}},{"type":"Feature","properties":{"id":33,"size":9.95},"geometry":{"type":"Point","coordinates":[34.16279,86.35839]}},{"type":"Feature","properties":{"id":34,"size":6.5},"geometry":{"type":"Point","coordinates":[-79.92093,84.1231]}},{"type":"Feature","properties":{"id":35,"size":8.3},"geometry":{"type":"Point","coordinates":[109.77028,87.03964]}},{"type":"Feature","properties":{"id":36,"size":5.07},"geometry":{"type":"Point","coordinates":[-129.9369,84.05214]}},{"type":"Feature","properties":{"id":37,"size":3.96},"geometry":{"type":"Point","coordinates":[24.08037,89.61282]}},{"type":"Feature","properties":{"id":38,"size":8.62},"geometry":{"type":"Point","coordinates":[-104.15914,85.59728]}},{"type":"Feature","properties":{"id":39,"size":9.9},"geometry":{"type":"Point","coordinates":[84.93095,86.79417]}},{"type":"Feature","properties":{"id":40,"size":9.55},"geometry":{"type":"Point","coordinates":[39.35159,86.20798]}},{"type":"Feature","properties":{"id":41,"size":5.84},"geometry":{"type":"Point","coordinates":[-3.88087,89.33915]}},{"type":"Feature","properties":{"id":42,"size":1.9},"geometry":{"type":"Point","coordinates":[106.44539,85.26547]}},{"type":"Feature","properties":{"id":43,"size":5.26},"geometry":{"type":"Point","coordinates":[19.76255,88.01897]}},{"type":"Feature","properties":{"id":44,"size":4.39},"geometry":{"type":"Point","coordinates":[-115.12588,89.24715]}},{"type":"Feature","properties":{"id":45,"size":0.03},"geometry":{"type":"Point","coordinates":[-8.09567,89.57632]}},{"type":"Feature","properties":{"id":46,"size":1.07},"geometry":{"type":"Point","coordinates":[-117.665,89.97754]}},{"type":"Feature","properties":{"id":47,"size":0.6},"geometry":{"type":"Point","coordinates":[135.46983,84.15399]}},{"type":"Feature","properties":{"id":48,"size":4.99},"geometry":{"type":"Point","coordinates":[-117.19629,88.45334]}},{"type":"Feature","properties":{"id":49,"size":3.6},"geometry":{"type":"Point","coordinates":[83.64035,88.65921]}},{"type":"Feature","properties":{"id":50,"size":8},"geometry":{"type":"Point","coordinates":[104.94935,86.40489]}},{"type":"Feature","properties":{"id":51,"size":4.12},"geometry":{"type":"Point","coordinates":[10.79634,85.72025]}},{"type":"Feature","properties":{"id":52,"size":5.27},"geometry":{"type":"Point","coordinates":[22.54915,89.05013]}},{"type":"Feature","properties":{"id":53,"size":2.52},"geometry":{"type":"Point","coordinates":[99.53405,89.8642]}},{"type":"Feature","properties":{"id":54,"size":7.75},"geometry":{"type":"Point","coordinates":[117.66337,85.48452]}},{"type":"Feature","properties":{"id":55,"size":9.2},"geometry":{"type":"Point","coordinates":[-25.26126,88.72064]}},{"type":"Feature","properties":{"id":56,"size":4.77},"geometry":{"type":"Point","coordinates":[-89.52045,88.69638]}},{"type":"Feature","properties":{"id":57,"size":9.75},"geometry":{"type":"Point","coordinates":[118.91046,88.45906]}},{"type":"Feature","properties":{"id":58,"size":3.39},"geometry":{"type":"Point","coordinates":[18.46131,88.27078]}},{"type":"Feature","properties":{"id":59,"size":8.84},"geometry":{"type":"Point","coordinates":[13.33463,89.04716]}},{"type":"Feature","properties":{"id":60,"size":8.41},"geometry":{"type":"Point","coordinates":[26.01314,84.1252]}},{"type":"Feature","properties":{"id":61,"size":6.98},"geometry":{"type":"Point","coordinates":[-1.57102,88.26785]}},{"type":"Feature","properties":{"id":62,"size":6.57},"geometry":{"type":"Point","coordinates":[155.18367,87.54828]}},{"type":"Feature","properties":{"id":63,"size":3.91},"geometry":{"type":"Point","coordinates":[-121.54149,86.53634]}},{"type":"Feature","properties":{"id":64,"size":3.84},"geometry":{"type":"Point","coordinates":[39.49641,85.24792]}},{"type":"Feature","properties":{"id":65,"size":6.83},"geometry":{"type":"Point","coordinates":[-73.66194,89.83659]}},{"type":"Feature","properties":{"id":66,"size":3.17},"geometry":{"type":"Point","coordinates":[83.56619,84.3155]}},{"type":"Feature","properties":{"id":67,"size":7.2},"geometry":{"type":"Point","coordinates":[-86.53028,89.895]}},{"type":"Feature","properties":{"id":68,"size":8.29},"geometry":{"type":"Point","coordinates":[153.42697,85.83341]}},{"type":"Feature","properties":{"id":69,"size":9.79},"geometry":{"type":"Point","coordinates":[166.58587,89.35318]}},{"type":"Feature","properties":{"id":70,"size":3.91},"geometry":{"type":"Point","coordinates":[-78.26678,87.62946]}},{"type":"Feature","properties":{"id":71,"size":6.24},"geometry":{"type":"Point","coordinates":[76.88071,86.02388]}},{"type":"Feature","properties":{"id":72,"size":5.94},"geometry":{"type":"Point","coordinates":[81.18863,87.06021]}},{"type":"Feature","properties":{"id":73,"size":4.83},"geometry":{"type":"Point","coordinates":[-82.10985,85.44705]}},{"type":"Feature","properties":{"id":74,"size":4.64},"geometry":{"type":"Point","coordinates":[-129.66403,86.31495]}},{"type":"Feature","properties":{"id":75,"size":8.88},"geometry":{"type":"Point","coordinates":[21.4326,87.54396]}},{"type":"Feature","properties":{"id":76,"size":1.02},"geometry":{"type":"Point","coordinates":[163.09193,89.63988]}},{"type":"Feature","properties":{"id":77,"size":3.93},"geometry":{"type":"Point","coordinates":[-76.71157,87.72499]}},{"type":"Feature","properties":{"id":78,"size":5.3},"geometry":{"type":"Point","coordinates":[147.62071,85.23762]}},{"type":"Feature","properties":{"id":79,"size":4.93},"geometry":{"type":"Point","coordinates":[146.8653,89.11706]}},{"type":"Feature","properties":{"id":80,"size":7.96},"geometry":{"type":"Point","coordinates":[153.33743,86.66571]}},{"type":"Feature","properties":{"id":81,"size":9.7},"geometry":{"type":"Point","coordinates":[-59.92758,84.79518]}},{"type":"Feature","properties":{"id":82,"size":1.67},"geometry":{"type":"Point","coordinates":[123.40485,89.999]}},{"type":"Feature","properties":{"id":83,"size":0.83},"geometry":{"type":"Point","coordinates":[90.94462,89.79722]}},{"type":"Feature","properties":{"id":84,"size":5.89},"geometry":{"type":"Point","coordinates":[148.25636,89.15228]}},{"type":"Feature","properties":{"id":85,"size":7.2},"geometry":{"type":"Point","coordinates":[-85.61795,85.75566]}},{"type":"Feature","properties":{"id":86,"size":9.8},"geometry":{"type":"Point","coordinates":[-159.30306,88.20889]}},{"type":"Feature","properties":{"id":87,"size":3.81},"geometry":{"type":"Point","coordinates":[-150.34511,89.85012]}},{"type":"Feature","properties":{"id":88,"size":2.72},"geometry":{"type":"Point","coordinates":[104.12078,86.55123]}},{"type":"Feature","properties":{"id":89,"size":4.83},"geometry":{"type":"Point","coordinates":[-0.88581,89.7919]}},{"type":"Feature","properties":{"id":90,"size":1.68},"geometry":{"type":"Point","coordinates":[-22.62571,87.59082]}},{"type":"Feature","properties":{"id":91,"size":6.92},"geometry":{"type":"Point","coordinates":[98.01839,88.99825]}},{"type":"Feature","properties":{"id":92,"size":1.82},"geometry":{"type":"Point","coordinates":[119.68949,89.95739]}},{"type":"Feature","properties":{"id":93,"size":2.82},"geometry":{"type":"Point","coordinates":[78.18613,84.93732]}},{"type":"Feature","properties":{"id":94,"size":3.22},"geometry":{"type":"Point","coordinates":[122.34541,86.89658]}},{"type":"Feature","properties":{"id":95,"size":9.88},"geometry":{"type":"Point","coordinates":[-145.88144,89.79077]}},{"type":"Feature","properties":{"id":96,"size":5.18},"geometry":{"type":"Point","coordinates":[69.63549,89.21479]}},{"type":"Feature","properties":{"id":97,"size":4.26},"geometry":{"type":"Point","coordinates":[-154.51352,87.77629]}},{"type":"Feature","properties":{"id":98,"size":7.41},"geometry":{"type":"Point","coordinates":[100.51164,89.6078]}},{"type":"Feature","properties":{"id":99,"size":2.05},"geometry":{"type":"Point","coordinates":[-118.63488,89.2995]}},{"type":"Feature","properties":{"id":100,"size":0.33},"geometry":{"type":"Point","coordinates":[136.94106,89.96756]}},{"type":"Feature","properties":{"id":101,"size":4.84},"geometry":{"type":"Point","coordinates":[158.49816,84.69606]}},{"type":"Feature","properties":{"id":102,"size":1.71},"geometry":{"type":"Point","coordinates":[27.23486,86.44774]}},{"type":"Feature","properties":{"id":103,"size":5.95},"geometry":{"type":"Point","coordinates":[6.50871,89.87802]}},{"type":"Feature","properties":{"id":104,"size":0.7},"geometry":{"type":"Point","coordinates":[79.73821,85.33783]}},{"type":"Feature","properties":{"id":105,"size":0.56},"geometry":{"type":"Point","coordinates":[25.26286,88.64743]}},{"type":"Feature","properties":{"id":106,"size":1.55},"geometry":{"type":"Point","coordinates":[151.3578,89.14505]}},{"type":"Feature","properties":{"id":107,"size":7.93},"geometry":{"type":"Point","coordinates":[-77.93662,88.7705]}},{"type":"Feature","properties":{"id":108,"size":7.74},"geometry":{"type":"Point","coordinates":[116.50065,85.16437]}},{"type":"Feature","properties":{"id":109,"size":6.38},"geometry":{"type":"Point","coordinates":[74.77189,85.175]}},{"type":"Feature","properties":{"id":110,"size":3.09},"geometry":{"type":"Point","coordinates":[72.74094,86.57566]}},{"type":"Feature","properties":{"id":111,"size":3.27},"geometry":{"type":"Point","coordinates":[-34.80247,86.78377]}},{"type":"Feature","properties":{"id":112,"size":5.98},"geometry":{"type":"Point","coordinates":[-92.97705,87.90085]}},{"type":"Feature","properties":{"id":113,"size":7.11},"geometry":{"type":"Point","coordinates":[63.06139,88.32866]}},{"type":"Feature","properties":{"id":114,"size":5.2},"geometry":{"type":"Point","coordinates":[-93.02449,86.19667]}},{"type":"Feature","properties":{"id":115,"size":8.16},"geometry":{"type":"Point","coordinates":[-21.54486,88.52912]}},{"type":"Feature","properties":{"id":116,"size":5.4},"geometry":{"type":"Point","coordinates":[-135.1265,87.5266]}},{"type":"Feature","properties":{"id":117,"size":0.78},"geometry":{"type":"Point","coordinates":[57.41753,87.021]}},{"type":"Feature","properties":{"id":118,"size":7.12},"geometry":{"type":"Point","coordinates":[-29.22479,84.48599]}},{"type":"Feature","properties":{"id":119,"size":3.16},"geometry":{"type":"Point","coordinates":[4.26243,86.52169]}},{"type":"Feature","properties":{"id":120,"size":7.63},"geometry":{"type":"Point","coordinates":[171.23342,89.90512]}},{"type":"Feature","properties":{"id":121,"size":4.92},"geometry":{"type":"Point","coordinates":[-19.23375,89.36172]}},{"type":"Feature","properties":{"id":122,"size":10},"geometry":{"type":"Point","coordinates":[-98.8422,85.25797]}},{"type":"Feature","properties":{"id":123,"size":1.66},"geometry":{"type":"Point","coordinates":[12.44562,84.49024]}},{"type":"Feature","properties":{"id":124,"size":0.43},"geometry":{"type":"Point","coordinates":[-6.5931,89.56461]}},{"type":"Feature","properties":{"id":125,"size":2.16},"geometry":{"type":"Point","coordinates":[72.52314,86.00503]}},{"type":"Feature","properties":{"id":126,"size":6.65},"geometry":{"type":"Point","coordinates":[-177.63748,87.99251]}},{"type":"Feature","properties":{"id":127,"size":9.4},"geometry":{"type":"Point","coordinates":[-67.69214,87.64565]}},{"type":"Feature","properties":{"id":128,"size":6.95},"geometry":{"type":"Point","coordinates":[-74.17399,87.54523]}},{"type":"Feature","properties":{"id":129,"size":6.35},"geometry":{"type":"Point","coordinates":[-71.97949,89.7989]}},{"type":"Feature","properties":{"id":130,"size":4.53},"geometry":{"type":"Point","coordinates":[-137.14232,87.57396]}},{"type":"Feature","properties":{"id":131,"size":7.41},"geometry":{"type":"Point","coordinates":[61.92312,85.55395]}},{"type":"Feature","properties":{"id":132,"size":5.27},"geometry":{"type":"Point","coordinates":[27.00273,85.88985]}},{"type":"Feature","properties":{"id":133,"size":6.15},"geometry":{"type":"Point","coordinates":[90.95111,87.11551]}},{"type":"Feature","properties":{"id":134,"size":7.64},"geometry":{"type":"Point","coordinates":[35.75998,86.67147]}},{"type":"Feature","properties":{"id":135,"size":8.59},"geometry":{"type":"Point","coordinates":[79.97246,85.0763]}},{"type":"Feature","properties":{"id":136,"size":1.5},"geometry":{"type":"Point","coordinates":[62.87735,87.0229]}},{"type":"Feature","properties":{"id":137,"size":2.03},"geometry":{"type":"Point","coordinates":[-88.20755,84.05158]}},{"type":"Feature","properties":{"id":138,"size":7.47},"geometry":{"type":"Point","coordinates":[146.1387,89.95603]}},{"type":"Feature","properties":{"id":139,"size":2.71},"geometry":{"type":"Point","coordinates":[6.71773,85.50539]}},{"type":"Feature","properties":{"id":140,"size":7.01},"geometry":{"type":"Point","coordinates":[-114.10684,88.877]}},{"type":"Feature","properties":{"id":141,"size":1.08},"geometry":{"type":"Point","coordinates":[52.5022,88.87191]}},{"type":"Feature","properties":{"id":142,"size":0.95},"geometry":{"type":"Point","coordinates":[-67.93387,84.54588]}},{"type":"Feature","properties":{"id":143,"size":7.33},"geometry":{"type":"Point","coordinates":[-125.57505,89.23551]}},{"type":"Feature","properties":{"id":144,"size":0.04},"geometry":{"type":"Point","coordinates":[-179.811,86.37783]}},{"type":"Feature","properties":{"id":145,"size":9.71},"geometry":{"type":"Point","coordinates":[171.47112,87.8287]}},{"type":"Feature","properties":{"id":146,"size":7.7},"geometry":{"type":"Point","coordinates":[39.22805,88.56067]}},{"type":"Feature","properties":{"id":147,"size":6.62},"geometry":{"type":"Point","coordinates":[-81.03435,88.66474]}},{"type":"Feature","properties":{"id":148,"size":7.39},"geometry":{"type":"Point","coordinates":[95.40343,87.62216]}},{"type":"Feature","properties":{"id":149,"size":2.46},"geometry":{"type":"Point","coordinates":[-43.16194,87.11194]}},{"type":"Feature","properties":{"id":150,"size":2.25},"geometry":{"type":"Point","coordinates":[-157.10746,88.48962]}},{"type":"Feature","properties":{"id":151,"size":3.24},"geometry":{"type":"Point","coordinates":[94.45133,89.60523]}},{"type":"Feature","properties":{"id":152,"size":9.34},"geometry":{"type":"Point","coordinates":[-144.86538,88.8375]}},{"type":"Feature","properties":{"id":153,"size":7.3},"geometry":{"type":"Point","coordinates":[139.71437,87.3234]}},{"type":"Feature","properties":{"id":154,"size":1.97},"geometry":{"type":"Point","coordinates":[130.51326,89.98838]}},{"type":"Feature","properties":{"id":155,"size":4.61},"geometry":{"type":"Point","coordinates":[-105.38449,88.40761]}},{"type":"Feature","properties":{"id":156,"size":3.7},"geometry":{"type":"Point","coordinates":[-125.03227,88.15044]}},{"type":"Feature","properties":{"id":157,"size":6.34},"geometry":{"type":"Point","coordinates":[-176.75807,89.99704]}},{"type":"Feature","properties":{"id":158,"size":0.43},"geometry":{"type":"Point","coordinates":[-26.74883,89.00817]}},{"type":"Feature","properties":{"id":159,"size":8.65},"geometry":{"type":"Point","coordinates":[-22.10865,85.92965]}},{"type":"Feature","properties":{"id":160,"size":9.86},"geometry":{"type":"Point","coordinates":[14.95817,86.34295]}},{"type":"Feature","properties":{"id":161,"size":8.65},"geometry":{"type":"Point","coordinates":[166.19803,88.84499]}},{"type":"Feature","properties":{"id":162,"size":9.37},"geometry":{"type":"Point","coordinates":[114.02042,85.72042]}},{"type":"Feature","properties":{"id":163,"size":3.21},"geometry":{"type":"Point","coordinates":[70.14088,86.44223]}},{"type":"Feature","properties":{"id":164,"size":3.41},"geometry":{"type":"Point","coordinates":[-70.91903,85.74375]}},{"type":"Feature","properties":{"id":165,"size":5.76},"geometry":{"type":"Point","coordinates":[94.33541,89.90821]}},{"type":"Feature","properties":{"id":166,"size":4.59},"geometry":{"type":"Point","coordinates":[28.14607,89.29497]}},{"type":"Feature","properties":{"id":167,"size":3},"geometry":{"type":"Point","coordinates":[58.68227,84.83483]}},{"type":"Feature","properties":{"id":168,"size":4.81},"geometry":{"type":"Point","coordinates":[-174.94951,87.38321]}},{"type":"Feature","properties":{"id":169,"size":4.02},"geometry":{"type":"Point","coordinates":[-164.21162,89.93257]}},{"type":"Feature","properties":{"id":170,"size":7.33},"geometry":{"type":"Point","coordinates":[-114.09522,86.6552]}},{"type":"Feature","properties":{"id":171,"size":7.81},"geometry":{"type":"Point","coordinates":[107.34205,85.93188]}},{"type":"Feature","properties":{"id":172,"size":9.1},"geometry":{"type":"Point","coordinates":[1.23966,84.62584]}},{"type":"Feature","properties":{"id":173,"size":9.24},"geometry":{"type":"Point","coordinates":[10.1287,84.48298]}},{"type":"Feature","properties":{"id":174,"size":7.95},"geometry":{"type":"Point","coordinates":[-58.09242,84.7936]}},{"type":"Feature","properties":{"id":175,"size":2.81},"geometry":{"type":"Point","coordinates":[-1.78476,88.48448]}},{"type":"Feature","properties":{"id":176,"size":7.33},"geometry":{"type":"Point","coordinates":[-1.15326,84.36968]}},{"type":"Feature","properties":{"id":177,"size":7.49},"geometry":{"type":"Point","coordinates":[-55.9021,86.01648]}},{"type":"Feature","properties":{"id":178,"size":6.2},"geometry":{"type":"Point","coordinates":[48.00422,86.32465]}},{"type":"Feature","properties":{"id":179,"size":7.91},"geometry":{"type":"Point","coordinates":[115.53437,89.85369]}},{"type":"Feature","properties":{"id":180,"size":4.06},"geometry":{"type":"Point","coordinates":[150.45959,89.54643]}},{"type":"Feature","properties":{"id":181,"size":5.11},"geometry":{"type":"Point","coordinates":[86.06588,85.88733]}},{"type":"Feature","properties":{"id":182,"size":9.9},"geometry":{"type":"Point","coordinates":[-26.94445,84.49853]}},{"type":"Feature","properties":{"id":183,"size":2.35},"geometry":{"type":"Point","coordinates":[-125.77398,86.79839]}},{"type":"Feature","properties":{"id":184,"size":5.44},"geometry":{"type":"Point","coordinates":[25.24416,88.0658]}},{"type":"Feature","properties":{"id":185,"size":6.07},"geometry":{"type":"Point","coordinates":[-33.08887,86.6507]}},{"type":"Feature","properties":{"id":186,"size":1.93},"geometry":{"type":"Point","coordinates":[121.89657,89.81356]}},{"type":"Feature","properties":{"id":187,"size":8.16},"geometry":{"type":"Point","coordinates":[129.87721,89.88325]}},{"type":"Feature","properties":{"id":188,"size":3.46},"geometry":{"type":"Point","coordinates":[-65.65068,86.91475]}},{"type":"Feature","properties":{"id":189,"size":1.47},"geometry":{"type":"Point","coordinates":[111.58619,89.37702]}},{"type":"Feature","properties":{"id":190,"size":1.02},"geometry":{"type":"Point","coordinates":[-11.68761,87.15812]}},{"type":"Feature","properties":{"id":191,"size":6.25},"geometry":{"type":"Point","coordinates":[169.73652,89.90373]}},{"type":"Feature","properties":{"id":192,"size":8.03},"geometry":{"type":"Point","coordinates":[4.86583,89.56965]}},{"type":"Feature","properties":{"id":193,"size":0.32},"geometry":{"type":"Point","coordinates":[154.54088,86.69111]}},{"type":"Feature","properties":{"id":194,"size":2.25},"geometry":{"type":"Point","coordinates":[-113.48,87.2931]}},{"type":"Feature","properties":{"id":195,"size":1.69},"geometry":{"type":"Point","coordinates":[-70.20565,88.27921]}},{"type":"Feature","properties":{"id":196,"size":6.88},"geometry":{"type":"Point","coordinates":[-142.47429,88.01472]}},{"type":"Feature","properties":{"id":197,"size":6.6},"geometry":{"type":"Point","coordinates":[161.00143,86.82636]}},{"type":"Feature","properties":{"id":198,"size":0.86},"geometry":{"type":"Point","coordinates":[-10.97466,88.74209]}},{"type":"Feature","properties":{"id":199,"size":6.2},"geometry":{"type":"Point","coordinates":[-63.96769,87.4049]}},{"type":"Feature","properties":{"id":200,"size":2.56},"geometry":{"type":"Point","coordinates":[142.17921,89.87879]}},{"type":"Feature","properties":{"id":201,"size":7.1},"geometry":{"type":"Point","coordinates":[-154.26661,87.94689]}},{"type":"Feature","properties":{"id":202,"size":7.7},"geometry":{"type":"Point","coordinates":[156.00748,89.85834]}},{"type":"Feature","properties":{"id":203,"size":8.82},"geometry":{"type":"Point","coordinates":[163.34852,88.19022]}},{"type":"Feature","properties":{"id":204,"size":0.53},"geometry":{"type":"Point","coordinates":[121.15974,88.10537]}},{"type":"Feature","properties":{"id":205,"size":1.45},"geometry":{"type":"Point","coordinates":[-92.7408,85.63306]}},{"type":"Feature","properties":{"id":206,"size":6.78},"geometry":{"type":"Point","coordinates":[-47.72359,85.77426]}},{"type":"Feature","properties":{"id":207,"size":7.8},"geometry":{"type":"Point","coordinates":[-32.14985,87.82147]}},{"type":"Feature","properties":{"id":208,"size":2.89},"geometry":{"type":"Point","coordinates":[71.32042,86.75068]}},{"type":"Feature","properties":{"id":209,"size":8.27},"geometry":{"type":"Point","coordinates":[-113.18603,84.45688]}},{"type":"Feature","properties":{"id":210,"size":6.21},"geometry":{"type":"Point","coordinates":[-46.80676,87.90986]}},{"type":"Feature","properties":{"id":211,"size":0.55},"geometry":{"type":"Point","coordinates":[120.08563,89.81754]}},{"type":"Feature","properties":{"id":212,"size":8.27},"geometry":{"type":"Point","coordinates":[-85.67992,84.97995]}},{"type":"Feature","properties":{"id":213,"size":4.55},"geometry":{"type":"Point","coordinates":[168.24262,85.79687]}},{"type":"Feature","properties":{"id":214,"size":0.92},"geometry":{"type":"Point","coordinates":[-61.96158,88.63257]}},{"type":"Feature","properties":{"id":215,"size":1.14},"geometry":{"type":"Point","coordinates":[-9.12872,89.48528]}},{"type":"Feature","properties":{"id":216,"size":2.6},"geometry":{"type":"Point","coordinates":[-59.69786,87.67354]}},{"type":"Feature","properties":{"id":217,"size":9.98},"geometry":{"type":"Point","coordinates":[48.12032,84.4827]}},{"type":"Feature","properties":{"id":218,"size":8.36},"geometry":{"type":"Point","coordinates":[-152.79911,84.65436]}},{"type":"Feature","properties":{"id":219,"size":4.49},"geometry":{"type":"Point","coordinates":[75.08602,85.09039]}},{"type":"Feature","properties":{"id":220,"size":8.3},"geometry":{"type":"Point","coordinates":[102.94134,84.72928]}},{"type":"Feature","properties":{"id":221,"size":4.07},"geometry":{"type":"Point","coordinates":[-57.6316,89.70315]}},{"type":"Feature","properties":{"id":222,"size":7.81},"geometry":{"type":"Point","coordinates":[-158.59694,89.97851]}},{"type":"Feature","properties":{"id":223,"size":4.3},"geometry":{"type":"Point","coordinates":[-150.01513,89.39925]}},{"type":"Feature","properties":{"id":224,"size":7.08},"geometry":{"type":"Point","coordinates":[-93.61588,84.57979]}},{"type":"Feature","properties":{"id":225,"size":3.2},"geometry":{"type":"Point","coordinates":[-52.52259,84.16544]}},{"type":"Feature","properties":{"id":226,"size":5.01},"geometry":{"type":"Point","coordinates":[-89.04106,87.26555]}},{"type":"Feature","properties":{"id":227,"size":0.44},"geometry":{"type":"Point","coordinates":[163.443,85.60522]}},{"type":"Feature","properties":{"id":228,"size":7.97},"geometry":{"type":"Point","coordinates":[132.74806,84.41551]}},{"type":"Feature","properties":{"id":229,"size":2.22},"geometry":{"type":"Point","coordinates":[-176.11,88.10902]}},{"type":"Feature","properties":{"id":230,"size":1.59},"geometry":{"type":"Point","coordinates":[3.73268,89.91694]}},{"type":"Feature","properties":{"id":231,"size":1.45},"geometry":{"type":"Point","coordinates":[120.24877,89.70015]}},{"type":"Feature","properties":{"id":232,"size":4.43},"geometry":{"type":"Point","coordinates":[20.85551,84.9892]}},{"type":"Feature","properties":{"id":233,"size":3.46},"geometry":{"type":"Point","coordinates":[136.91626,84.65213]}},{"type":"Feature","properties":{"id":234,"size":4.63},"geometry":{"type":"Point","coordinates":[-178.44533,89.9593]}},{"type":"Feature","properties":{"id":235,"size":4.76},"geometry":{"type":"Point","coordinates":[163.5964,85.16542]}},{"type":"Feature","properties":{"id":236,"size":7.67},"geometry":{"type":"Point","coordinates":[4.50165,86.41034]}},{"type":"Feature","properties":{"id":237,"size":6.71},"geometry":{"type":"Point","coordinates":[-37.06125,89.8848]}},{"type":"Feature","properties":{"id":238,"size":4.9},"geometry":{"type":"Point","coordinates":[-121.41872,89.6799]}},{"type":"Feature","properties":{"id":239,"size":2.5},"geometry":{"type":"Point","coordinates":[22.10279,89.99717]}},{"type":"Feature","properties":{"id":240,"size":7.85},"geometry":{"type":"Point","coordinates":[175.46464,87.37037]}},{"type":"Feature","properties":{"id":241,"size":4.24},"geometry":{"type":"Point","coordinates":[137.276,86.67273]}},{"type":"Feature","properties":{"id":242,"size":7.68},"geometry":{"type":"Point","coordinates":[125.91218,88.12882]}},{"type":"Feature","properties":{"id":243,"size":8.26},"geometry":{"type":"Point","coordinates":[-36.26571,89.84761]}},{"type":"Feature","properties":{"id":244,"size":2.1},"geometry":{"type":"Point","coordinates":[-127.41982,89.72517]}},{"type":"Feature","properties":{"id":245,"size":0.18},"geometry":{"type":"Point","coordinates":[-96.31304,85.6464]}},{"type":"Feature","properties":{"id":246,"size":5.6},"geometry":{"type":"Point","coordinates":[14.80767,88.78541]}},{"type":"Feature","properties":{"id":247,"size":0.42},"geometry":{"type":"Point","coordinates":[-139.87669,89.85962]}},{"type":"Feature","properties":{"id":248,"size":2.75},"geometry":{"type":"Point","coordinates":[84.88383,89.17227]}},{"type":"Feature","properties":{"id":249,"size":2.76},"geometry":{"type":"Point","coordinates":[59.37014,87.39311]}},{"type":"Feature","properties":{"id":250,"size":1.75},"geometry":{"type":"Point","coordinates":[-11.51613,88.53523]}},{"type":"Feature","properties":{"id":251,"size":7.69},"geometry":{"type":"Point","coordinates":[150.15266,89.00475]}},{"type":"Feature","properties":{"id":252,"size":8.68},"geometry":{"type":"Point","coordinates":[-10.73571,86.77155]}},{"type":"Feature","properties":{"id":253,"size":7.59},"geometry":{"type":"Point","coordinates":[134.56888,88.93853]}},{"type":"Feature","properties":{"id":254,"size":9.95},"geometry":{"type":"Point","coordinates":[28.70433,86.76302]}},{"type":"Feature","properties":{"id":255,"size":3.74},"geometry":{"type":"Point","coordinates":[106.49102,87.02369]}},{"type":"Feature","properties":{"id":256,"size":8.87},"geometry":{"type":"Point","coordinates":[-179.59875,85.56115]}},{"type":"Feature","properties":{"id":257,"size":5.93},"geometry":{"type":"Point","coordinates":[114.68504,89.15158]}},{"type":"Feature","properties":{"id":258,"size":3.58},"geometry":{"type":"Point","coordinates":[0.59436,89.20653]}},{"type":"Feature","properties":{"id":259,"size":9.25},"geometry":{"type":"Point","coordinates":[-30.94546,84.50579]}},{"type":"Feature","properties":{"id":260,"size":3.71},"geometry":{"type":"Point","coordinates":[17.9769,86.11819]}},{"type":"Feature","properties":{"id":261,"size":1.77},"geometry":{"type":"Point","coordinates":[22.54651,89.84044]}},{"type":"Feature","properties":{"id":262,"size":5.61},"geometry":{"type":"Point","coordinates":[64.71587,88.76441]}},{"type":"Feature","properties":{"id":263,"size":7.3},"geometry":{"type":"Point","coordinates":[80.99894,89.50258]}},{"type":"Feature","properties":{"id":264,"size":5.27},"geometry":{"type":"Point","coordinates":[-168.41182,84.2581]}},{"type":"Feature","properties":{"id":265,"size":7.46},"geometry":{"type":"Point","coordinates":[-44.36571,87.32371]}},{"type":"Feature","properties":{"id":266,"size":4.49},"geometry":{"type":"Point","coordinates":[-39.35701,86.70102]}},{"type":"Feature","properties":{"id":267,"size":4.42},"geometry":{"type":"Point","coordinates":[-108.82117,88.72064]}},{"type":"Feature","properties":{"id":268,"size":5.93},"geometry":{"type":"Point","coordinates":[-138.31264,89.47108]}},{"type":"Feature","properties":{"id":269,"size":0.89},"geometry":{"type":"Point","coordinates":[74.48093,88.83211]}},{"type":"Feature","properties":{"id":270,"size":1.45},"geometry":{"type":"Point","coordinates":[97.49303,84.5156]}},{"type":"Feature","properties":{"id":271,"size":7.51},"geometry":{"type":"Point","coordinates":[24.45654,89.68346]}},{"type":"Feature","properties":{"id":272,"size":3.8},"geometry":{"type":"Point","coordinates":[-119.32501,85.39696]}},{"type":"Feature","properties":{"id":273,"size":5.88},"geometry":{"type":"Point","coordinates":[177.58722,88.08624]}},{"type":"Feature","properties":{"id":274,"size":6.41},"geometry":{"type":"Point","coordinates":[-64.86337,87.91277]}},{"type":"Feature","properties":{"id":275,"size":1.3},"geometry":{"type":"Point","coordinates":[17.86281,84.98326]}},{"type":"Feature","properties":{"id":276,"size":1.28},"geometry":{"type":"Point","coordinates":[-133.55786,88.72797]}},{"type":"Feature","properties":{"id":277,"size":0.02},"geometry":{"type":"Point","coordinates":[-153.41966,88.54506]}},{"type":"Feature","properties":{"id":278,"size":6.09},"geometry":{"type":"Point","coordinates":[31.82201,84.48816]}},{"type":"Feature","properties":{"id":279,"size":6.56},"geometry":{"type":"Point","coordinates":[174.14316,89.92809]}},{"type":"Feature","properties":{"id":280,"size":7.34},"geometry":{"type":"Point","coordinates":[-76.99594,84.99184]}},{"type":"Feature","properties":{"id":281,"size":9.91},"geometry":{"type":"Point","coordinates":[-161.00819,89.59703]}},{"type":"Feature","properties":{"id":282,"size":7.96},"geometry":{"type":"Point","coordinates":[93.15625,86.28402]}},{"type":"Feature","properties":{"id":283,"size":6.56},"geometry":{"type":"Point","coordinates":[-25.82976,84.66858]}},{"type":"Feature","properties":{"id":284,"size":7.4},"geometry":{"type":"Point","coordinates":[-25.04875,87.23539]}},{"type":"Feature","properties":{"id":285,"size":9.47},"geometry":{"type":"Point","coordinates":[51.31104,89.76733]}},{"type":"Feature","properties":{"id":286,"size":2.8},"geometry":{"type":"Point","coordinates":[134.24841,84.7778]}},{"type":"Feature","properties":{"id":287,"size":4.48},"geometry":{"type":"Point","coordinates":[67.69168,84.77037]}},{"type":"Feature","properties":{"id":288,"size":4.85},"geometry":{"type":"Point","coordinates":[-12.50631,88.30549]}},{"type":"Feature","properties":{"id":289,"size":5.16},"geometry":{"type":"Point","coordinates":[37.13776,88.75248]}},{"type":"Feature","properties":{"id":290,"size":5.66},"geometry":{"type":"Point","coordinates":[154.55317,89.61015]}},{"type":"Feature","properties":{"id":291,"size":5.35},"geometry":{"type":"Point","coordinates":[-153.48648,88.65332]}},{"type":"Feature","properties":{"id":292,"size":7.73},"geometry":{"type":"Point","coordinates":[17.94645,84.21255]}},{"type":"Feature","properties":{"id":293,"size":4.52},"geometry":{"type":"Point","coordinates":[96.64648,86.54834]}},{"type":"Feature","properties":{"id":294,"size":4.77},"geometry":{"type":"Point","coordinates":[99.6431,84.99087]}},{"type":"Feature","properties":{"id":295,"size":8.77},"geometry":{"type":"Point","coordinates":[-122.31776,89.12595]}},{"type":"Feature","properties":{"id":296,"size":9.54},"geometry":{"type":"Point","coordinates":[22.62701,85.9719]}},{"type":"Feature","properties":{"id":297,"size":4.4},"geometry":{"type":"Point","coordinates":[-11.16583,88.89945]}},{"type":"Feature","properties":{"id":298,"size":4.8},"geometry":{"type":"Point","coordinates":[41.0633,89.99799]}},{"type":"Feature","properties":{"id":299,"size":2.98},"geometry":{"type":"Point","coordinates":[44.38865,89.57564]}},{"type":"Feature","properties":{"id":300,"size":5.48},"geometry":{"type":"Point","coordinates":[22.78799,89.84975]}},{"type":"Feature","properties":{"id":301,"size":1.77},"geometry":{"type":"Point","coordinates":[16.82545,89.70053]}},{"type":"Feature","properties":{"id":302,"size":2.6},"geometry":{"type":"Point","coordinates":[37.66916,86.18356]}},{"type":"Feature","properties":{"id":303,"size":0.99},"geometry":{"type":"Point","coordinates":[-29.00082,86.36673]}},{"type":"Feature","properties":{"id":304,"size":6.94},"geometry":{"type":"Point","coordinates":[-45.10452,89.16487]}},{"type":"Feature","properties":{"id":305,"size":5.13},"geometry":{"type":"Point","coordinates":[138.10965,87.65879]}},{"type":"Feature","properties":{"id":306,"size":8},"geometry":{"type":"Point","coordinates":[-114.18881,87.5971]}},{"type":"Feature","properties":{"id":307,"size":5.76},"geometry":{"type":"Point","coordinates":[-67.43462,84.37897]}},{"type":"Feature","properties":{"id":308,"size":8.93},"geometry":{"type":"Point","coordinates":[-84.77281,87.55004]}},{"type":"Feature","properties":{"id":309,"size":7.62},"geometry":{"type":"Point","coordinates":[151.87034,84.01406]}},{"type":"Feature","properties":{"id":310,"size":7.41},"geometry":{"type":"Point","coordinates":[-142.96601,88.56188]}},{"type":"Feature","properties":{"id":311,"size":0.46},"geometry":{"type":"Point","coordinates":[106.14776,89.41998]}},{"type":"Feature","properties":{"id":312,"size":1.7},"geometry":{"type":"Point","coordinates":[111.59634,89.12029]}},{"type":"Feature","properties":{"id":313,"size":8.54},"geometry":{"type":"Point","coordinates":[8.48555,89.7158]}},{"type":"Feature","properties":{"id":314,"size":8.02},"geometry":{"type":"Point","coordinates":[-67.91567,87.27993]}},{"type":"Feature","properties":{"id":315,"size":2.28},"geometry":{"type":"Point","coordinates":[66.53143,86.23627]}},{"type":"Feature","properties":{"id":316,"size":8.88},"geometry":{"type":"Point","coordinates":[-31.27312,85.51175]}},{"type":"Feature","properties":{"id":317,"size":6.56},"geometry":{"type":"Point","coordinates":[-71.0639,88.77094]}},{"type":"Feature","properties":{"id":318,"size":9.16},"geometry":{"type":"Point","coordinates":[-159.56688,87.34492]}},{"type":"Feature","properties":{"id":319,"size":2.45},"geometry":{"type":"Point","coordinates":[-59.62472,87.37641]}},{"type":"Feature","properties":{"id":320,"size":1.86},"geometry":{"type":"Point","coordinates":[92.85414,89.19117]}},{"type":"Feature","properties":{"id":321,"size":6.87},"geometry":{"type":"Point","coordinates":[-122.84225,88.91834]}},{"type":"Feature","properties":{"id":322,"size":2.17},"geometry":{"type":"Point","coordinates":[9.11769,87.73623]}},{"type":"Feature","properties":{"id":323,"size":4.46},"geometry":{"type":"Point","coordinates":[88.85798,85.64228]}},{"type":"Feature","properties":{"id":324,"size":5.28},"geometry":{"type":"Point","coordinates":[-107.40316,88.83664]}},{"type":"Feature","properties":{"id":325,"size":5.59},"geometry":{"type":"Point","coordinates":[76.85603,89.75108]}},{"type":"Feature","properties":{"id":326,"size":5.86},"geometry":{"type":"Point","coordinates":[167.80835,87.77243]}},{"type":"Feature","properties":{"id":327,"size":8.93},"geometry":{"type":"Point","coordinates":[156.33576,87.18025]}},{"type":"Feature","properties":{"id":328,"size":0.21},"geometry":{"type":"Point","coordinates":[95.35496,89.79894]}},{"type":"Feature","properties":{"id":329,"size":2.92},"geometry":{"type":"Point","coordinates":[151.5026,86.80224]}},{"type":"Feature","properties":{"id":330,"size":9.65},"geometry":{"type":"Point","coordinates":[172.96931,89.67442]}},{"type":"Feature","properties":{"id":331,"size":1.48},"geometry":{"type":"Point","coordinates":[149.16244,84.41409]}},{"type":"Feature","properties":{"id":332,"size":7.52},"geometry":{"type":"Point","coordinates":[-147.40367,88.2781]}},{"type":"Feature","properties":{"id":333,"size":4.84},"geometry":{"type":"Point","coordinates":[7.9975,87.51279]}},{"type":"Feature","properties":{"id":334,"size":7.39},"geometry":{"type":"Point","coordinates":[9.00471,86.86716]}},{"type":"Feature","properties":{"id":335,"size":5.37},"geometry":{"type":"Point","coordinates":[87.97381,86.18798]}},{"type":"Feature","properties":{"id":336,"size":9.81},"geometry":{"type":"Point","coordinates":[-32.42036,88.98878]}},{"type":"Feature","properties":{"id":337,"size":8.52},"geometry":{"type":"Point","coordinates":[4.66909,89.76184]}},{"type":"Feature","properties":{"id":338,"size":3.76},"geometry":{"type":"Point","coordinates":[173.62879,89.14263]}},{"type":"Feature","properties":{"id":339,"size":4.6},"geometry":{"type":"Point","coordinates":[-151.98959,87.83287]}},{"type":"Feature","properties":{"id":340,"size":4.08},"geometry":{"type":"Point","coordinates":[-105.76337,86.93994]}},{"type":"Feature","properties":{"id":341,"size":6.68},"geometry":{"type":"Point","coordinates":[173.85428,88.16127]}},{"type":"Feature","properties":{"id":342,"size":5.12},"geometry":{"type":"Point","coordinates":[154.15263,89.85484]}},{"type":"Feature","properties":{"id":343,"size":9.01},"geometry":{"type":"Point","coordinates":[-70.87255,89.93173]}},{"type":"Feature","properties":{"id":344,"size":1.82},"geometry":{"type":"Point","coordinates":[-152.24388,86.43213]}},{"type":"Feature","properties":{"id":345,"size":9.46},"geometry":{"type":"Point","coordinates":[43.17368,89.91645]}},{"type":"Feature","properties":{"id":346,"size":3.11},"geometry":{"type":"Point","coordinates":[-35.75499,89.46284]}},{"type":"Feature","properties":{"id":347,"size":1.99},"geometry":{"type":"Point","coordinates":[31.4569,89.29898]}},{"type":"Feature","properties":{"id":348,"size":7.74},"geometry":{"type":"Point","coordinates":[-172.05933,89.74642]}},{"type":"Feature","properties":{"id":349,"size":8.7},"geometry":{"type":"Point","coordinates":[131.98359,88.83822]}},{"type":"Feature","properties":{"id":350,"size":2.33},"geometry":{"type":"Point","coordinates":[135.41791,86.266]}},{"type":"Feature","properties":{"id":351,"size":0.9},"geometry":{"type":"Point","coordinates":[50.03783,89.99091]}},{"type":"Feature","properties":{"id":352,"size":2.08},"geometry":{"type":"Point","coordinates":[9.85711,89.16182]}},{"type":"Feature","properties":{"id":353,"size":2.25},"geometry":{"type":"Point","coordinates":[-75.13854,85.87537]}},{"type":"Feature","properties":{"id":354,"size":6.03},"geometry":{"type":"Point","coordinates":[95.59725,89.48639]}},{"type":"Feature","properties":{"id":355,"size":5.58},"geometry":{"type":"Point","coordinates":[-63.17571,86.26498]}},{"type":"Feature","properties":{"id":356,"size":4.31},"geometry":{"type":"Point","coordinates":[124.74262,89.39934]}},{"type":"Feature","properties":{"id":357,"size":8.71},"geometry":{"type":"Point","coordinates":[-21.43613,89.47289]}},{"type":"Feature","properties":{"id":358,"size":5.45},"geometry":{"type":"Point","coordinates":[51.70611,86.13199]}},{"type":"Feature","properties":{"id":359,"size":7.53},"geometry":{"type":"Point","coordinates":[-169.89072,84.28446]}},{"type":"Feature","properties":{"id":360,"size":7.91},"geometry":{"type":"Point","coordinates":[-70.68774,87.01042]}},{"type":"Feature","properties":{"id":361,"size":1.81},"geometry":{"type":"Point","coordinates":[-65.06583,89.08073]}},{"type":"Feature","properties":{"id":362,"size":8.9},"geometry":{"type":"Point","coordinates":[-6.36118,84.74061]}},{"type":"Feature","properties":{"id":363,"size":6.16},"geometry":{"type":"Point","coordinates":[-103.15642,87.49468]}},{"type":"Feature","properties":{"id":364,"size":3.2},"geometry":{"type":"Point","coordinates":[-17.62275,88.73078]}},{"type":"Feature","properties":{"id":365,"size":9.13},"geometry":{"type":"Point","coordinates":[120.63573,87.33297]}},{"type":"Feature","properties":{"id":366,"size":6.13},"geometry":{"type":"Point","coordinates":[77.71913,87.73235]}},{"type":"Feature","properties":{"id":367,"size":7.99},"geometry":{"type":"Point","coordinates":[-133.78728,86.25682]}},{"type":"Feature","properties":{"id":368,"size":7.48},"geometry":{"type":"Point","coordinates":[166.34101,85.77667]}},{"type":"Feature","properties":{"id":369,"size":9.84},"geometry":{"type":"Point","coordinates":[31.20887,89.60807]}},{"type":"Feature","properties":{"id":370,"size":7.48},"geometry":{"type":"Point","coordinates":[44.35193,87.96136]}},{"type":"Feature","properties":{"id":371,"size":3.35},"geometry":{"type":"Point","coordinates":[-125.09715,89.51769]}},{"type":"Feature","properties":{"id":372,"size":7.18},"geometry":{"type":"Point","coordinates":[-94.7285,87.19668]}},{"type":"Feature","properties":{"id":373,"size":4.83},"geometry":{"type":"Point","coordinates":[60.15527,86.72982]}},{"type":"Feature","properties":{"id":374,"size":2.44},"geometry":{"type":"Point","coordinates":[-16.49799,89.98796]}},{"type":"Feature","properties":{"id":375,"size":1.45},"geometry":{"type":"Point","coordinates":[-123.38955,89.99025]}},{"type":"Feature","properties":{"id":376,"size":1.16},"geometry":{"type":"Point","coordinates":[20.91027,89.42948]}},{"type":"Feature","properties":{"id":377,"size":5.36},"geometry":{"type":"Point","coordinates":[5.41813,87.43586]}},{"type":"Feature","properties":{"id":378,"size":1.82},"geometry":{"type":"Point","coordinates":[-85.58885,89.09441]}},{"type":"Feature","properties":{"id":379,"size":3.38},"geometry":{"type":"Point","coordinates":[106.73046,88.84562]}},{"type":"Feature","properties":{"id":380,"size":4.2},"geometry":{"type":"Point","coordinates":[-170.64684,88.47499]}},{"type":"Feature","properties":{"id":381,"size":9.29},"geometry":{"type":"Point","coordinates":[131.0004,85.0644]}},{"type":"Feature","properties":{"id":382,"size":3.99},"geometry":{"type":"Point","coordinates":[7.97856,87.2429]}},{"type":"Feature","properties":{"id":383,"size":4.09},"geometry":{"type":"Point","coordinates":[104.80297,89.40951]}},{"type":"Feature","properties":{"id":384,"size":7.1},"geometry":{"type":"Point","coordinates":[37.03017,89.91448]}},{"type":"Feature","properties":{"id":385,"size":2.16},"geometry":{"type":"Point","coordinates":[39.39404,87.03077]}},{"type":"Feature","properties":{"id":386,"size":4.77},"geometry":{"type":"Point","coordinates":[-174.88073,89.35365]}},{"type":"Feature","properties":{"id":387,"size":5.87},"geometry":{"type":"Point","coordinates":[-129.43461,85.53799]}},{"type":"Feature","properties":{"id":388,"size":1.05},"geometry":{"type":"Point","coordinates":[-80.49574,89.90696]}},{"type":"Feature","properties":{"id":389,"size":7.2},"geometry":{"type":"Point","coordinates":[-122.83856,89.73671]}},{"type":"Feature","properties":{"id":390,"size":1.44},"geometry":{"type":"Point","coordinates":[85.0348,84.77791]}},{"type":"Feature","properties":{"id":391,"size":0.48},"geometry":{"type":"Point","coordinates":[-135.96962,88.21151]}},{"type":"Feature","properties":{"id":392,"size":4.42},"geometry":{"type":"Point","coordinates":[97.50296,88.21808]}},{"type":"Feature","properties":{"id":393,"size":3.91},"geometry":{"type":"Point","coordinates":[93.50097,89.61633]}},{"type":"Feature","properties":{"id":394,"size":7.68},"geometry":{"type":"Point","coordinates":[-5.68914,89.18314]}},{"type":"Feature","properties":{"id":395,"size":6.5},"geometry":{"type":"Point","coordinates":[-28.90917,86.32564]}},{"type":"Feature","properties":{"id":396,"size":2.58},"geometry":{"type":"Point","coordinates":[-20.66327,89.95766]}},{"type":"Feature","properties":{"id":397,"size":4.57},"geometry":{"type":"Point","coordinates":[79.41971,87.90517]}},{"type":"Feature","properties":{"id":398,"size":1.66},"geometry":{"type":"Point","coordinates":[78.00441,86.49215]}},{"type":"Feature","properties":{"id":399,"size":2.1},"geometry":{"type":"Point","coordinates":[27.09658,86.34045]}}]}