{"type":"FeatureCollection","features":[{"type":"Feature","properties":{"name":"Sol 1-40 drive","priority":3},"geometry":{"type":"LineString","coordinates":[[-122.51,37.77],[-122.47,37.79],[-122.43,37.775],[-122.4,37.79],[-122.39,37.76]]}},{"type":"Feature","properties":{"name":"Bay crossing","priority":1},"geometry":{"type":"LineString","coordinates":[[-122.39,37.79],[-122.33,37.82],[-122.29,37.86]]}},{"type":"Feature","properties":{"name":"Peninsula legs","priority":2},"geometry":{"type":"MultiLineString","coordinates":[[[-122.42,37.72],[-122.4,37.68],[-122.38,37.63]],[[-122.3,37.58],[-122.25,37.53],[-122.18,37.47]]]}},{"type":"Feature","properties":{"name":"Golden Gate Park survey","priority":2},"geometry":{"type":"Polygon","coordinates":[[[-122.51,37.766],[-122.455,37.766],[-122.455,37.774],[-122.51,37.774],[-122.51,37.766]]]}},{"type":"Feature","properties":{"name":"Berkeley hills survey","priority":4},"geometry":{"type":"Polygon","coordinates":[[[-122.27,37.86],[-122.24,37.85],[-122.22,37.88],[-122.25,37.9],[-122.27,37.86]]]}},{"type":"Feature","properties":{"name":"Alameda survey","priority":1},"geometry":{"type":"Polygon","coordinates":[[[-122.29,37.76],[-122.24,37.75],[-122.25,37.78],[-122.28,37.79],[-122.29,37.76]]]}}]}