{"type":"FeatureCollection","features":[{"type":"Feature","properties":{"id":0,"intensity":8.68},"geometry":{"type":"Point","coordinates":[-175.786289,89.575316]}},{"type":"Feature","properties":{"id":1,"intensity":1.8},"geometry":{"type":"Point","coordinates":[-34.012192,89.914939]}},{"type":"Feature","properties":{"id":2,"intensity":2.97},"geometry":{"type":"Point","coordinates":[-87.186398,89.938219]}},{"type":"Feature","properties":{"id":3,"intensity":5.15},"geometry":{"type":"Point","coordinates":[-47.534906,89.023935]}},{"type":"Feature","properties":{"id":4,"intensity":2.57},"geometry":{"type":"Point","coordinates":[-90.887906,89.105658]}},{"type":"Feature","properties":{"id":5,"intensity":2.68},"geometry":{"type":"Point","coordinates":[-75.257563,89.887299]}},{"type":"Feature","properties":{"id":6,"intensity":10.23},"geometry":{"type":"Point","coordinates":[19.335869,89.288529]}},{"type":"Feature","properties":{"id":7,"intensity":2.93},"geometry":{"type":"Point","coordinates":[151.63375,87.820432]}},{"type":"Feature","properties":{"id":8,"intensity":6.81},"geometry":{"type":"Point","coordinates":[-26.886339,89.793903]}},{"type":"Feature","properties":{"id":9,"intensity":3.95},"geometry":{"type":"Point","coordinates":[-26.382347,88.726797]}},{"type":"Feature","properties":{"id":10,"intensity":3.29},"geometry":{"type":"Point","coordinates":[-60.966747,89.275411]}},{"type":"Feature","properties":{"id":11,"intensity":5.36},"geometry":{"type":"Point","coordinates":[-63.926293,89.474077]}},{"type":"Feature","properties":{"id":12,"intensity":6.25},"geometry":{"type":"Point","coordinates":[66.33136,87.415234]}},{"type":"Feature","properties":{"id":13,"intensity":6.61},"geometry":{"type":"Point","coordinates":[151.156084,89.411812]}},{"type":"Feature","properties":{"id":14,"intensity":13.62},"geometry":{"type":"Point","coordinates":[165.779421,88.100324]}},{"type":"Feature","properties":{"id":15,"intensity":3.84},"geometry":{"type":"Point","coordinates":[17.484576,87.784441]}},{"type":"Feature","properties":{"id":16,"intensity":13.84},"geometry":{"type":"Point","coordinates":[80.737774,89.948438]}},{"type":"Feature","properties":{"id":17,"intensity":8.76},"geometry":{"type":"Point","coordinates":[116.337415,89.203546]}},{"type":"Feature","properties":{"id":18,"intensity":2.03},"geometry":{"type":"Point","coordinates":[-67.541822,89.119235]}},{"type":"Feature","properties":{"id":19,"intensity":6.75},"geometry":{"type":"Point","coordinates":[120.012809,88.313372]}},{"type":"Feature","properties":{"id":20,"intensity":9.61},"geometry":{"type":"Point","coordinates":[78.065911,89.318147]}},{"type":"Feature","properties":{"id":21,"intensity":3.73},"geometry":{"type":"Point","coordinates":[109.770279,89.189689]}},{"type":"Feature","properties":{"id":22,"intensity":2.23},"geometry":{"type":"Point","coordinates":[2.495399,89.175473]}},{"type":"Feature","properties":{"id":23,"intensity":8.32},"geometry":{"type":"Point","coordinates":[112.875199,89.789148]}},{"type":"Feature","properties":{"id":24,"intensity":1.73},"geometry":{"type":"Point","coordinates":[39.351588,88.116747]}},{"type":"Feature","properties":{"id":25,"intensity":4.05},"geometry":{"type":"Point","coordinates":[30.242773,88.700734]}},{"type":"Feature","properties":{"id":26,"intensity":4.52},"geometry":{"type":"Point","coordinates":[-8.026222,89.377705]}},{"type":"Feature","properties":{"id":27,"intensity":4.05},"geometry":{"type":"Point","coordinates":[-8.095675,89.26561]}},{"type":"Feature","properties":{"id":28,"intensity":1.8},"geometry":{"type":"Point","coordinates":[-141.397798,87.560918]}},{"type":"Feature","properties":{"id":29,"intensity":4.05},"geometry":{"type":"Point","coordinates":[-34.186531,89.843722]}},{"type":"Feature","properties":{"id":30,"intensity":2.84},"geometry":{"type":"Point","coordinates":[104.949348,89.414645]}},{"type":"Feature","properties":{"id":31,"intensity":2.01},"geometry":{"type":"Point","coordinates":[-31.620417,89.591401]}},{"type":"Feature","properties":{"id":32,"intensity":2.45},"geometry":{"type":"Point","coordinates":[-151.195142,89.575251]}},{"type":"Feature","properties":{"id":33,"intensity":3.45},"geometry":{"type":"Point","coordinates":[-25.261257,89.01078]}},{"type":"Feature","properties":{"id":34,"intensity":13.85},"geometry":{"type":"Point","coordinates":[-8.292706,88.138356]}},{"type":"Feature","properties":{"id":35,"intensity":4.11},"geometry":{"type":"Point","coordinates":[-22.926771,88.938358]}},{"type":"Feature","properties":{"id":36,"intensity":6.39},"geometry":{"type":"Point","coordinates":[26.013139,88.101965]}},{"type":"Feature","properties":{"id":37,"intensity":4.83},"geometry":{"type":"Point","coordinates":[71.161798,87.363986]}},{"type":"Feature","properties":{"id":38,"intensity":8.34},"geometry":{"type":"Point","coordinates":[69.588678,89.078074]}},{"type":"Feature","properties":{"id":39,"intensity":8.92},"geometry":{"type":"Point","coordinates":[-73.661939,89.787763]}},{"type":"Feature","properties":{"id":40,"intensity":8.14},"geometry":{"type":"Point","coordinates":[-65.729465,89.15174]}},{"type":"Feature","properties":{"id":41,"intensity":4.55},"geometry":{"type":"Point","coordinates":[102.307361,87.807028]}},{"type":"Feature","properties":{"id":42,"intensity":1.5},"geometry":{"type":"Point","coordinates":[-78.266778,88.843742]}},{"type":"Feature","properties":{"id":43,"intensity":1.92},"geometry":{"type":"Point","coordinates":[44.542684,88.605893]}},{"type":"Feature","properties":{"id":44,"intensity":8.8},"geometry":{"type":"Point","coordinates":[119.500253,89.120709]}},{"type":"Feature","properties":{"id":45,"intensity":8.06},"geometry":{"type":"Point","coordinates":[21.432599,88.841498]}},{"type":"Feature","properties":{"id":46,"intensity":5.22},"geometry":{"type":"Point","coordinates":[-143.368845,89.024225]}},{"type":"Feature","properties":{"id":47,"intensity":5.04},"geometry":{"type":"Point","coordinates":[128.61549,88.764985]}},{"type":"Feature","properties":{"id":48,"intensity":4.8},"geometry":{"type":"Point","coordinates":[153.337428,89.488803]}},{"type":"Feature","properties":{"id":49,"intensity":1.05},"geometry":{"type":"Point","coordinates":[169.062863,87.691967]}},{"type":"Feature","properties":{"id":50,"intensity":4.37},"geometry":{"type":"Point","coordinates":[-142.368136,89.576461]}},{"type":"Feature","properties":{"id":51,"intensity":2.62},"geometry":{"type":"Point","coordinates":[-85.617953,89.594843]}},{"type":"Feature","properties":{"id":52,"intensity":2.2},"geometry":{"type":"Point","coordinates":[172.622525,89.572435]}},{"type":"Feature","properties":{"id":53,"intensity":3.36},"geometry":{"type":"Point","coordinates":[68.873219,89.044037]}},{"type":"Feature","properties":{"id":54,"intensity":3.82},"geometry":{"type":"Point","coordinates":[-22.62571,89.258776]}},{"type":"Feature","properties":{"id":55,"intensity":1.65},"geometry":{"type":"Point","coordinates":[69.064322,87.792501]}},{"type":"Feature","properties":{"id":56,"intensity":4.16},"geometry":{"type":"Point","coordinates":[141.456318,89.477521]}},{"type":"Feature","properties":{"id":57,"intensity":1.37},"geometry":{"type":"Point","coordinates":[-145.881439,89.431358]}},{"type":"Feature","properties":{"id":58,"intensity":1.96},"geometry":{"type":"Point","coordinates":[6.457907,89.542453]}},{"type":"Feature","properties":{"id":59,"intensity":2.04},"geometry":{"type":"Point","coordinates":[-121.582766,89.054528]}},{"type":"Feature","properties":{"id":60,"intensity":11.44},"geometry":{"type":"Point","coordinates":[136.941059,89.706423]}},{"type":"Feature","properties":{"id":61,"intensity":4.04},"geometry":{"type":"Point","coordinates":[-5.853877,89.562357]}},{"type":"Feature","properties":{"id":62,"intensity":9.75},"geometry":{"type":"Point","coordinates":[-153.183379,89.712469]}},{"type":"Feature","properties":{"id":63,"intensity":2.61},"geometry":{"type":"Point","coordinates":[25.262862,88.915864]}},{"type":"Feature","properties":{"id":64,"intensity":4.96},"geometry":{"type":"Point","coordinates":[-124.118962,89.436172]}},{"type":"Feature","properties":{"id":65,"intensity":7.49},"geometry":{"type":"Point","coordinates":[131.771875,89.456745]}},{"type":"Feature","properties":{"id":66,"intensity":3.73},"geometry":{"type":"Point","coordinates":[72.740937,89.340071]}},{"type":"Feature","properties":{"id":67,"intensity":4.06},"geometry":{"type":"Point","coordinates":[-62.142017,89.107498]}},{"type":"Feature","properties":{"id":68,"intensity":9.12},"geometry":{"type":"Point","coordinates":[-26.451783,89.900212]}},{"type":"Feature","properties":{"id":69,"intensity":3.43},"geometry":{"type":"Point","coordinates":[-21.544858,89.521131]}},{"type":"Feature","properties":{"id":70,"intensity":2.76},"geometry":{"type":"Point","coordinates":[14.481248,88.770359]}},{"type":"Feature","properties":{"id":71,"intensity":4.12},"geometry":{"type":"Point","coordinates":[160.287937,88.110976]}},{"type":"Feature","properties":{"id":72,"intensity":1.87},"geometry":{"type":"Point","coordinates":[171.233419,89.96564]}},{"type":"Feature","properties":{"id":73,"intensity":20.63},"geometry":{"type":"Point","coordinates":[-2.803057,89.475046]}},{"type":"Feature","properties":{"id":74,"intensity":3.98},"geometry":{"type":"Point","coordinates":[160.113166,89.280565]}},{"type":"Feature","properties":{"id":75,"intensity":1.57},"geometry":{"type":"Point","coordinates":[72.523143,89.568194]}},{"type":"Feature","properties":{"id":76,"intensity":4.24},"geometry":{"type":"Point","coordinates":[59.367523,88.988672]}},{"type":"Feature","properties":{"id":77,"intensity":2.55},"geometry":{"type":"Point","coordinates":[18.400489,89.427798]}},{"type":"Feature","properties":{"id":78,"intensity":4.13},"geometry":{"type":"Point","coordinates":[-137.142316,88.554427]}},{"type":"Feature","properties":{"id":79,"intensity":1.1},"geometry":{"type":"Point","coordinates":[86.841937,89.73409]}},{"type":"Feature","properties":{"id":80,"intensity":1.64},"geometry":{"type":"Point","coordinates":[40.926524,88.654549]}},{"type":"Feature","properties":{"id":81,"intensity":6.24},"geometry":{"type":"Point","coordinates":[79.97246,88.443864]}},{"type":"Feature","properties":{"id":82,"intensity":3.8},"geometry":{"type":"Point","coordinates":[-125.925263,89.079888]}},{"type":"Feature","properties":{"id":83,"intensity":2.25},"geometry":{"type":"Point","coordinates":[-166.417742,88.023743]}},{"type":"Feature","properties":{"id":84,"intensity":4.4},"geometry":{"type":"Point","coordinates":[-114.106841,89.673279]}},{"type":"Feature","properties":{"id":85,"intensity":2.3},"geometry":{"type":"Point","coordinates":[-141.180602,89.040318]}},{"type":"Feature","properties":{"id":86,"intensity":8.91},"geometry":{"type":"Point","coordinates":[-88.844495,88.050314]}},{"type":"Feature","properties":{"id":87,"intensity":6.17},"geometry":{"type":"Point","coordinates":[171.471117,88.594007]}},{"type":"Feature","properties":{"id":88,"intensity":1.69},"geometry":{"type":"Point","coordinates":[97.266358,89.353637]}},{"type":"Feature","properties":{"id":89,"intensity":1.17},"geometry":{"type":"Point","coordinates":[14.232926,88.56628]}},{"type":"Feature","properties":{"id":90,"intensity":5.41},"geometry":{"type":"Point","coordinates":[-157.107456,89.811595]}},{"type":"Feature","properties":{"id":91,"intensity":9.9},"geometry":{"type":"Point","coordinates":[-63.314111,89.723659]}},{"type":"Feature","properties":{"id":92,"intensity":1.29},"geometry":{"type":"Point","coordinates":[30.179615,88.738879]}},{"type":"Feature","properties":{"id":93,"intensity":3.77},"geometry":{"type":"Point","coordinates":[-105.384492,88.798171]}},{"type":"Feature","properties":{"id":94,"intensity":7.33},"geometry":{"type":"Point","coordinates":[-46.937148,89.838715]}},{"type":"Feature","properties":{"id":95,"intensity":6.7},"geometry":{"type":"Point","coordinates":[-71.567334,89.67023]}},{"type":"Feature","properties":{"id":96,"intensity":7.39},"geometry":{"type":"Point","coordinates":[14.958171,88.095898]}},{"type":"Feature","properties":{"id":97,"intensity":4.99},"geometry":{"type":"Point","coordinates":[131.540631,89.339373]}},{"type":"Feature","properties":{"id":98,"intensity":5.81},"geometry":{"type":"Point","coordinates":[74.089414,89.654913]}},{"type":"Feature","properties":{"id":99,"intensity":1.42},"geometry":{"type":"Point","coordinates":[94.335412,89.619392]}},{"type":"Feature","properties":{"id":100,"intensity":5.21},"geometry":{"type":"Point","coordinates":[-14.871791,88.536494]}},{"type":"Feature","properties":{"id":101,"intensity":2.31},"geometry":{"type":"Point","coordinates":[27.036765,88.678263]}},{"type":"Feature","properties":{"id":102,"intensity":2.22},"geometry":{"type":"Point","coordinates":[-114.095216,89.811643]}},{"type":"Feature","properties":{"id":103,"intensity":11.81},"geometry":{"type":"Point","coordinates":[101.154246,88.718301]}},{"type":"Feature","properties":{"id":104,"intensity":4.08},"geometry":{"type":"Point","coordinates":[160.412058,88.560234]}},{"type":"Feature","properties":{"id":105,"intensity":6.66},"geometry":{"type":"Point","coordinates":[-1.784764,89.766237]}},{"type":"Feature","properties":{"id":106,"intensity":6.57},"geometry":{"type":"Point","coordinates":[83.972061,89.923491]}},{"type":"Feature","properties":{"id":107,"intensity":1.53},"geometry":{"type":"Point","coordinates":[79.657587,89.280054]}},{"type":"Feature","properties":{"id":108,"intensity":2.4},"geometry":{"type":"Point","coordinates":[150.459586,89.375705]}},{"type":"Feature","properties":{"id":109,"intensity":9.9},"geometry":{"type":"Point","coordinates":[3.906125,88.815138]}},{"type":"Feature","properties":{"id":110,"intensity":6.42},"geometry":{"type":"Point","coordinates":[56.83582,89.205603]}},{"type":"Feature","properties":{"id":111,"intensity":8.77},"geometry":{"type":"Point","coordinates":[-33.088871,88.587254]}},{"type":"Feature","properties":{"id":112,"intensity":4.79},"geometry":{"type":"Point","coordinates":[-110.429408,87.859063]}},{"type":"Feature","properties":{"id":113,"intensity":3.14},"geometry":{"type":"Point","coordinates":[51.061893,89.593253]}},{"type":"Feature","properties":{"id":114,"intensity":13.29},"geometry":{"type":"Point","coordinates":[-11.687614,88.685809]}},{"type":"Feature","properties":{"id":115,"intensity":9.14},"geometry":{"type":"Point","coordinates":[45.02757,89.326961]}},{"type":"Feature","properties":{"id":116,"intensity":2.03},"geometry":{"type":"Point","coordinates":[62.097205,89.877489]}},{"type":"Feature","properties":{"id":117,"intensity":3.32},"geometry":{"type":"Point","coordinates":[-70.205651,89.376747]}},{"type":"Feature","properties":{"id":118,"intensity":8.21},"geometry":{"type":"Point","coordinates":[67.824023,88.349454]}},{"type":"Feature","properties":{"id":119,"intensity":5.75},"geometry":{"type":"Point","coordinates":[-52.951944,89.775976]}},{"type":"Feature","properties":{"id":120,"intensity":2.92},"geometry":{"type":"Point","coordinates":[142.179209,89.982774]}},{"type":"Feature","properties":{"id":121,"intensity":9.21},"geometry":{"type":"Point","coordinates":[75.77841,87.572294]}},{"type":"Feature","properties":{"id":122,"intensity":6.28},"geometry":{"type":"Point","coordinates":[-18.085743,88.717442]}},{"type":"Feature","properties":{"id":123,"intensity":2.24},"geometry":{"type":"Point","coordinates":[-92.740802,88.656393]}},{"type":"Feature","properties":{"id":124,"intensity":3.79},"geometry":{"type":"Point","coordinates":[63.965796,88.767861]}},{"type":"Feature","properties":{"id":125,"intensity":6.69},"geometry":{"type":"Point","coordinates":[59.18281,89.61015]}},{"type":"Feature","properties":{"id":126,"intensity":8.75},"geometry":{"type":"Point","coordinates":[-46.806759,88.980387]}},{"type":"Feature","properties":{"id":127,"intensity":10.17},"geometry":{"type":"Point","coordinates":[-160.104463,89.287134]}},{"type":"Feature","properties":{"id":128,"intensity":5.04},"geometry":{"type":"Point","coordinates":[103.955335,89.378184]}},{"type":"Feature","properties":{"id":129,"intensity":5.42},"geometry":{"type":"Point","coordinates":[-9.128718,89.404034]}},{"type":"Feature","properties":{"id":130,"intensity":16.8},"geometry":{"type":"Point","coordinates":[-86.427887,88.397676]}},{"type":"Feature","properties":{"id":131,"intensity":10.68},"geometry":{"type":"Point","coordinates":[153.324987,89.412873]}},{"type":"Feature","properties":{"id":132,"intensity":4.02},"geometry":{"type":"Point","coordinates":[102.94134,88.71023]}},{"type":"Feature","properties":{"id":133,"intensity":8.54},"geometry":{"type":"Point","coordinates":[-33.432978,89.584387]}},{"type":"Feature","properties":{"id":134,"intensity":4.08},"geometry":{"type":"Point","coordinates":[-102.375473,89.919705]}},{"type":"Feature","properties":{"id":135,"intensity":4.19},"geometry":{"type":"Point","coordinates":[-52.522593,88.547955]}},{"type":"Feature","properties":{"id":136,"intensity":2.02},"geometry":{"type":"Point","coordinates":[0.45974,88.859274]}},{"type":"Feature","properties":{"id":137,"intensity":1.97},"geometry":{"type":"Point","coordinates":[163.181771,87.860384]}},{"type":"Feature","properties":{"id":138,"intensity":7.24},"geometry":{"type":"Point","coordinates":[3.732677,89.775509]}},{"type":"Feature","properties":{"id":139,"intensity":4.95},"geometry":{"type":"Point","coordinates":[-127.664376,88.838334]}},{"type":"Feature","properties":{"id":140,"intensity":2.31},"geometry":{"type":"Point","coordinates":[153.418001,88.895106]}},{"type":"Feature","properties":{"id":141,"intensity":2.49},"geometry":{"type":"Point","coordinates":[163.596403,87.622892]}},{"type":"Feature","properties":{"id":142,"intensity":4.89},"geometry":{"type":"Point","coordinates":[96.158665,88.913358]}},{"type":"Feature","properties":{"id":143,"intensity":1},"geometry":{"type":"Point","coordinates":[-128.981946,88.709783]}},{"type":"Feature","properties":{"id":144,"intensity":5.69},"geometry":{"type":"Point","coordinates":[175.464642,89.659657]}},{"type":"Feature","properties":{"id":145,"intensity":7.89},"geometry":{"type":"Point","coordinates":[-27.202565,87.737392]}},{"type":"Feature","properties":{"id":146,"intensity":1.65},"geometry":{"type":"Point","coordinates":[-148.894988,88.636669]}},{"type":"Feature","properties":{"id":147,"intensity":4.5},"geometry":{"type":"Point","coordinates":[-96.313041,87.836399]}},{"type":"Feature","properties":{"id":148,"intensity":1.13},"geometry":{"type":"Point","coordinates":[21.659262,89.491999]}},{"type":"Feature","properties":{"id":149,"intensity":2.06},"geometry":{"type":"Point","coordinates":[-83.884511,89.509644]}},{"type":"Feature","properties":{"id":150,"intensity":4.57},"geometry":{"type":"Point","coordinates":[-11.51613,89.457211]}},{"type":"Feature","properties":{"id":151,"intensity":8.06},"geometry":{"type":"Point","coordinates":[96.843985,89.286413]}},{"type":"Feature","properties":{"id":152,"intensity":8.37},"geometry":{"type":"Point","coordinates":[-66.549589,88.223522]}},{"type":"Feature","properties":{"id":153,"intensity":1.1},"geometry":{"type":"Point","coordinates":[106.491017,88.819292]}},{"type":"Feature","properties":{"id":154,"intensity":7.7},"geometry":{"type":"Point","coordinates":[139.443836,89.702514]}},{"type":"Feature","properties":{"id":155,"intensity":11.67},"geometry":{"type":"Point","coordinates":[-86.55504,89.031376]}},{"type":"Feature","properties":{"id":156,"intensity":6.45},"geometry":{"type":"Point","coordinates":[17.9769,88.631244]}},{"type":"Feature","properties":{"id":157,"intensity":2},"geometry":{"type":"Point","coordinates":[-116.31604,88.947345]}},{"type":"Feature","properties":{"id":158,"intensity":14.13},"geometry":{"type":"Point","coordinates":[-111.553612,88.09763]}},{"type":"Feature","properties":{"id":159,"intensity":3.37},"geometry":{"type":"Point","coordinates":[-44.365707,89.957102]}},{"type":"Feature","properties":{"id":160,"intensity":5.04},"geometry":{"type":"Point","coordinates":[-18.202228,89.504277]}},{"type":"Feature","properties":{"id":161,"intensity":4.84},"geometry":{"type":"Point","coordinates":[-108.693546,89.569762]}},{"type":"Feature","properties":{"id":162,"intensity":5.11},"geometry":{"type":"Point","coordinates":[97.493029,88.246604]}},{"type":"Feature","properties":{"id":163,"intensity":5.88},"geometry":{"type":"Point","coordinates":[90.268531,89.616963]}},{"type":"Feature","properties":{"id":164,"intensity":4.7},"geometry":{"type":"Point","coordinates":[-11.941809,89.321588]}},{"type":"Feature","properties":{"id":165,"intensity":2.62},"geometry":{"type":"Point","coordinates":[17.862812,88.284808]}},{"type":"Feature","properties":{"id":166,"intensity":1.3},"geometry":{"type":"Point","coordinates":[-133.836658,89.640009]}},{"type":"Feature","properties":{"id":167,"intensity":1.92},"geometry":{"type":"Point","coordinates":[160.198942,88.363549]}},{"type":"Feature","properties":{"id":168,"intensity":1.84},"geometry":{"type":"Point","coordinates":[-76.995937,89.754066]}},{"type":"Feature","properties":{"id":169,"intensity":9.02},"geometry":{"type":"Point","coordinates":[176.912952,89.703245]}},{"type":"Feature","properties":{"id":170,"intensity":1.42},"geometry":{"type":"Point","coordinates":[152.733764,88.412774]}},{"type":"Feature","properties":{"id":171,"intensity":9.63},"geometry":{"type":"Point","coordinates":[51.311042,89.440599]}},{"type":"Feature","properties":{"id":172,"intensity":6.32},"geometry":{"type":"Point","coordinates":[-79.253104,88.438546]}},{"type":"Feature","properties":{"id":173,"intensity":5.63},"geometry":{"type":"Point","coordinates":[-25.036173,88.897233]}},{"type":"Feature","properties":{"id":174,"intensity":2.33},"geometry":{"type":"Point","coordinates":[154.553174,89.347422]}},{"type":"Feature","properties":{"id":175,"intensity":2},"geometry":{"type":"Point","coordinates":[12.662033,88.500699]}},{"type":"Feature","properties":{"id":176,"intensity":11.32},"geometry":{"type":"Point","coordinates":[69.012113,89.779456]}},{"type":"Feature","properties":{"id":177,"intensity":1.67},"geometry":{"type":"Point","coordinates":[-122.317763,89.30874]}},{"type":"Feature","properties":{"id":178,"intensity":5.06},"geometry":{"type":"Point","coordinates":[163.347329,89.403507]}},{"type":"Feature","properties":{"id":179,"intensity":1.91},"geometry":{"type":"Point","coordinates":[-178.265811,89.019487]}},{"type":"Feature","properties":{"id":180,"intensity":5.14},"geometry":{"type":"Point","coordinates":[22.787994,89.515219]}},{"type":"Feature","properties":{"id":181,"intensity":4.39},"geometry":{"type":"Point","coordinates":[-116.331091,89.893394]}},{"type":"Feature","properties":{"id":182,"intensity":2.36},"geometry":{"type":"Point","coordinates":[77.671623,89.613852]}},{"type":"Feature","properties":{"id":183,"intensity":4.06},"geometry":{"type":"Point","coordinates":[138.109649,88.522232]}},{"type":"Feature","properties":{"id":184,"intensity":1.6},"geometry":{"type":"Point","coordinates":[108.145609,88.99777]}},{"type":"Feature","properties":{"id":185,"intensity":2.35},"geometry":{"type":"Point","coordinates":[18.140852,87.76446]}},{"type":"Feature","properties":{"id":186,"intensity":3.18},"geometry":{"type":"Point","coordinates":[-142.966007,89.934073]}},{"type":"Feature","properties":{"id":187,"intensity":4.02},"geometry":{"type":"Point","coordinates":[-163.317369,89.616522]}},{"type":"Feature","properties":{"id":188,"intensity":3.16},"geometry":{"type":"Point","coordinates":[-132.871748,89.114718]}},{"type":"Feature","properties":{"id":189,"intensity":3.32},"geometry":{"type":"Point","coordinates":[66.531431,89.728993]}},{"type":"Feature","properties":{"id":190,"intensity":7.85},"geometry":{"type":"Point","coordinates":[139.746963,89.414215]}},{"type":"Feature","properties":{"id":191,"intensity":1.19},"geometry":{"type":"Point","coordinates":[29.051305,88.65105]}},{"type":"Feature","properties":{"id":192,"intensity":2.24},"geometry":{"type":"Point","coordinates":[92.854139,89.632216]}},{"type":"Feature","properties":{"id":193,"intensity":1.07},"geometry":{"type":"Point","coordinates":[67.37594,88.549238]}},{"type":"Feature","properties":{"id":194,"intensity":5.45},"geometry":{"type":"Point","coordinates":[110.876088,89.610141]}},{"type":"Feature","properties":{"id":195,"intensity":13.94},"geometry":{"type":"Point","coordinates":[76.856027,89.435239]}},{"type":"Feature","properties":{"id":196,"intensity":1.99},"geometry":{"type":"Point","coordinates":[30.868262,87.781877]}},{"type":"Feature","properties":{"id":197,"intensity":2.9},"geometry":{"type":"Point","coordinates":[-142.582085,89.784291]}},{"type":"Feature","properties":{"id":198,"intensity":11.61},"geometry":{"type":"Point","coordinates":[172.969313,89.348173]}},{"type":"Feature","properties":{"id":199,"intensity":9.26},"geometry":{"type":"Point","coordinates":[-126.782661,89.520073]}},{"type":"Feature","properties":{"id":200,"intensity":1.51},"geometry":{"type":"Point","coordinates":[20.144495,88.636621]}},{"type":"Feature","properties":{"id":201,"intensity":2.74},"geometry":{"type":"Point","coordinates":[87.973813,88.086202]}},{"type":"Feature","properties":{"id":202,"intensity":10.72},"geometry":{"type":"Point","coordinates":[173.087548,88.928451]}},{"type":"Feature","properties":{"id":203,"intensity":6.76},"geometry":{"type":"Point","coordinates":[-81.603435,88.971622]}},{"type":"Feature","properties":{"id":204,"intensity":14.69},"geometry":{"type":"Point","coordinates":[-105.763368,88.568944]}},{"type":"Feature","properties":{"id":205,"intensity":2.96},"geometry":{"type":"Point","coordinates":[60.605953,87.617525]}},{"type":"Feature","properties":{"id":206,"intensity":4.26},"geometry":{"type":"Point","coordinates":[-161.787855,87.715818]}},{"type":"Feature","properties":{"id":207,"intensity":2.56},"geometry":{"type":"Point","coordinates":[43.173684,89.60957]}},{"type":"Feature","properties":{"id":208,"intensity":4.3},"geometry":{"type":"Point","coordinates":[-68.027089,89.889661]}},{"type":"Feature","properties":{"id":209,"intensity":4.1},"geometry":{"type":"Point","coordinates":[-136.319999,88.616447]}},{"type":"Feature","properties":{"id":210,"intensity":8.11},"geometry":{"type":"Point","coordinates":[135.417914,89.799196]}},{"type":"Feature","properties":{"id":211,"intensity":1.88},"geometry":{"type":"Point","coordinates":[-147.656684,89.82292]}},{"type":"Feature","properties":{"id":212,"intensity":3.63},"geometry":{"type":"Point","coordinates":[100.408704,89.916389]}},{"type":"Feature","properties":{"id":213,"intensity":3.08},"geometry":{"type":"Point","coordinates":[-63.175712,88.189378]}},{"type":"Feature","properties":{"id":214,"intensity":7.27},"geometry":{"type":"Point","coordinates":[-24.911676,89.582055]}},{"type":"Feature","properties":{"id":215,"intensity":1.28},"geometry":{"type":"Point","coordinates":[88.653823,88.517264]}},{"type":"Feature","properties":{"id":216,"intensity":1.99},"geometry":{"type":"Point","coordinates":[-70.687739,89.566688]}},{"type":"Feature","properties":{"id":217,"intensity":3.39},"geometry":{"type":"Point","coordinates":[-114.833075,88.810704]}},{"type":"Feature","properties":{"id":218,"intensity":2.99},"geometry":{"type":"Point","coordinates":[21.114842,88.416856]}},{"type":"Feature","properties":{"id":219,"intensity":8.85},"geometry":{"type":"Point","coordinates":[120.635728,88.643355]}},{"type":"Feature","properties":{"id":220,"intensity":9.71},"geometry":{"type":"Point","coordinates":[40.592759,89.921622]}},{"type":"Feature","properties":{"id":221,"intensity":3.96},"geometry":{"type":"Point","coordinates":[104.864475,88.295894]}},{"type":"Feature","properties":{"id":222,"intensity":2.12},"geometry":{"type":"Point","coordinates":[44.351927,89.979891]}},{"type":"Feature","properties":{"id":223,"intensity":4.96},"geometry":{"type":"Point","coordinates":[-59.447866,89.293135]}},{"type":"Feature","properties":{"id":224,"intensity":1.04},"geometry":{"type":"Point","coordinates":[60.205317,88.677856]}},{"type":"Feature","properties":{"id":225,"intensity":2.65},"geometry":{"type":"Point","coordinates":[-123.389552,89.876891]}},{"type":"Feature","properties":{"id":226,"intensity":1.48},"geometry":{"type":"Point","coordinates":[-138.223601,88.683685]}},{"type":"Feature","properties":{"id":227,"intensity":3.35},"geometry":{"type":"Point","coordinates":[-77.947349,89.78107]}},{"type":"Feature","properties":{"id":228,"intensity":8.19},"geometry":{"type":"Point","coordinates":[-170.646835,88.933219]}},{"type":"Feature","properties":{"id":229,"intensity":2.29},"geometry":{"type":"Point","coordinates":[154.51002,88.796289]}},{"type":"Feature","properties":{"id":230,"intensity":1.43},"geometry":{"type":"Point","coordinates":[-103.26234,89.017934]}},{"type":"Feature","properties":{"id":231,"intensity":1.13},"geometry":{"type":"Point","coordinates":[39.394037,89.639011]}},{"type":"Feature","properties":{"id":232,"intensity":2.1},"geometry":{"type":"Point","coordinates":[-8.450887,89.715777]}},{"type":"Feature","properties":{"id":233,"intensity":1.48},"geometry":{"type":"Point","coordinates":[-157.614201,89.693179]}},{"type":"Feature","properties":{"id":234,"intensity":3.41},"geometry":{"type":"Point","coordinates":[85.034799,88.363128]}},{"type":"Feature","properties":{"id":235,"intensity":1.33},"geometry":{"type":"Point","coordinates":[-162.620043,88.061279]}},{"type":"Feature","properties":{"id":236,"intensity":1.45},"geometry":{"type":"Point","coordinates":[-122.433243,88.810205]}},{"type":"Feature","properties":{"id":237,"intensity":6.26},"geometry":{"type":"Point","coordinates":[-28.909168,88.868633]}},{"type":"Feature","properties":{"id":238,"intensity":2.15},"geometry":{"type":"Point","coordinates":[-87.121801,88.084301]}},{"type":"Feature","properties":{"id":239,"intensity":2.99},"geometry":{"type":"Point","coordinates":[71.707149,89.35605]}},{"type":"Feature","properties":{"id":240,"intensity":2.94},"geometry":{"type":"Point","coordinates":[60.488213,89.35218]}},{"type":"Feature","properties":{"id":241,"intensity":6.44},"geometry":{"type":"Point","coordinates":[-119.996767,89.346085]}},{"type":"Feature","properties":{"id":242,"intensity":4.38},"geometry":{"type":"Point","coordinates":[-18.395515,88.437844]}},{"type":"Feature","properties":{"id":243,"intensity":1.82},"geometry":{"type":"Point","coordinates":[-112.15529,89.397642]}},{"type":"Feature","properties":{"id":244,"intensity":5.89},"geometry":{"type":"Point","coordinates":[131.134745,89.937904]}},{"type":"Feature","properties":{"id":245,"intensity":10.77},"geometry":{"type":"Point","coordinates":[-80.159491,89.441468]}},{"type":"Feature","properties":{"id":246,"intensity":1.27},"geometry":{"type":"Point","coordinates":[-163.645772,89.16853]}},{"type":"Feature","properties":{"id":247,"intensity":1.51},"geometry":{"type":"Point","coordinates":[-136.280479,88.725675]}},{"type":"Feature","properties":{"id":248,"intensity":9.7},"geometry":{"type":"Point","coordinates":[13.9703,89.695019]}},{"type":"Feature","properties":{"id":249,"intensity":1.3},"geometry":{"type":"Point","coordinates":[-92.305896,88.857081]}},{"type":"Feature","properties":{"id":250,"intensity":10.37},"geometry":{"type":"Point","coordinates":[-102.104588,89.535239]}},{"type":"Feature","properties":{"id":251,"intensity":3.96},"geometry":{"type":"Point","coordinates":[146.693398,89.865947]}},{"type":"Feature","properties":{"id":252,"intensity":5.75},"geometry":{"type":"Point","coordinates":[3.507806,87.453794]}},{"type":"Feature","properties":{"id":253,"intensity":3.45},"geometry":{"type":"Point","coordinates":[-146.67205,89.546081]}},{"type":"Feature","properties":{"id":254,"intensity":15.2},"geometry":{"type":"Point","coordinates":[118.727379,89.390947]}},{"type":"Feature","properties":{"id":255,"intensity":10.11},"geometry":{"type":"Point","coordinates":[-146.276538,88.122794]}},{"type":"Feature","properties":{"id":256,"intensity":8.87},"geometry":{"type":"Point","coordinates":[-75.62827,87.699999]}},{"type":"Feature","properties":{"id":257,"intensity":6.21},"geometry":{"type":"Point","coordinates":[-66.081947,89.842]}},{"type":"Feature","properties":{"id":258,"intensity":1.83},"geometry":{"type":"Point","coordinates":[177.036065,89.212463]}},{"type":"Feature","properties":{"id":259,"intensity":1.06},"geometry":{"type":"Point","coordinates":[76.415366,89.089077]}},{"type":"Feature","properties":{"id":260,"intensity":9.04},"geometry":{"type":"Point","coordinates":[116.299567,89.644295]}},{"type":"Feature","properties":{"id":261,"intensity":9.13},"geometry":{"type":"Point","coordinates":[42.051631,89.337183]}},{"type":"Feature","properties":{"id":262,"intensity":1.5},"geometry":{"type":"Point","coordinates":[92.511755,87.980076]}},{"type":"Feature","properties":{"id":263,"intensity":1.83},"geometry":{"type":"Point","coordinates":[-23.529016,89.938351]}},{"type":"Feature","properties":{"id":264,"intensity":3.65},"geometry":{"type":"Point","coordinates":[8.960112,88.811928]}},{"type":"Feature","properties":{"id":265,"intensity":1.48},"geometry":{"type":"Point","coordinates":[6.850618,88.825864]}},{"type":"Feature","properties":{"id":266,"intensity":1.96},"geometry":{"type":"Point","coordinates":[140.230577,89.434154]}},{"type":"Feature","properties":{"id":267,"intensity":7.57},"geometry":{"type":"Point","coordinates":[-42.795919,89.978059]}},{"type":"Feature","properties":{"id":268,"intensity":1.93},"geometry":{"type":"Point","coordinates":[137.712811,89.519159]}},{"type":"Feature","properties":{"id":269,"intensity":4.6},"geometry":{"type":"Point","coordinates":[136.665032,88.858882]}},{"type":"Feature","properties":{"id":270,"intensity":6.35},"geometry":{"type":"Point","coordinates":[-64.589982,88.78372]}},{"type":"Feature","properties":{"id":271,"intensity":1.37},"geometry":{"type":"Point","coordinates":[-51.907499,88.834904]}},{"type":"Feature","properties":{"id":272,"intensity":2.9},"geometry":{"type":"Point","coordinates":[-167.143868,86.410202]}},{"type":"Feature","properties":{"id":273,"intensity":9.32},"geometry":{"type":"Point","coordinates":[132.183856,89.61998]}},{"type":"Feature","properties":{"id":274,"intensity":3.67},"geometry":{"type":"Point","coordinates":[162.304758,89.929794]}},{"type":"Feature","properties":{"id":275,"intensity":2.43},"geometry":{"type":"Point","coordinates":[-160.897379,88.523565]}},{"type":"Feature","properties":{"id":276,"intensity":1.75},"geometry":{"type":"Point","coordinates":[-52.042317,88.379001]}},{"type":"Feature","properties":{"id":277,"intensity":3.02},"geometry":{"type":"Point","coordinates":[-162.106106,88.028588]}},{"type":"Feature","properties":{"id":278,"intensity":6.07},"geometry":{"type":"Point","coordinates":[3.582488,89.316211]}},{"type":"Feature","properties":{"id":279,"intensity":1.41},"geometry":{"type":"Point","coordinates":[52.406458,88.401484]}},{"type":"Feature","properties":{"id":280,"intensity":6.87},"geometry":{"type":"Point","coordinates":[-125.016022,89.729768]}},{"type":"Feature","properties":{"id":281,"intensity":1.52},"geometry":{"type":"Point","coordinates":[-20.824326,89.749942]}},{"type":"Feature","properties":{"id":282,"intensity":2.54},"geometry":{"type":"Point","coordinates":[77.61196,88.939619]}},{"type":"Feature","properties":{"id":283,"intensity":4.19},"geometry":{"type":"Point","coordinates":[51.065328,89.187922]}},{"type":"Feature","properties":{"id":284,"intensity":6.14},"geometry":{"type":"Point","coordinates":[-27.816166,88.455132]}},{"type":"Feature","properties":{"id":285,"intensity":5.53},"geometry":{"type":"Point","coordinates":[12.399514,89.522304]}},{"type":"Feature","properties":{"id":286,"intensity":1.02},"geometry":{"type":"Point","coordinates":[79.941395,89.633048]}},{"type":"Feature","properties":{"id":287,"intensity":2.99},"geometry":{"type":"Point","coordinates":[-5.12928,88.310909]}},{"type":"Feature","properties":{"id":288,"intensity":3.16},"geometry":{"type":"Point","coordinates":[-163.703017,89.511754]}},{"type":"Feature","properties":{"id":289,"intensity":4.39},"geometry":{"type":"Point","coordinates":[125.32073,88.571727]}},{"type":"Feature","properties":{"id":290,"intensity":2.78},"geometry":{"type":"Point","coordinates":[-144.903969,87.916881]}},{"type":"Feature","properties":{"id":291,"intensity":6.47},"geometry":{"type":"Point","coordinates":[-35.100018,89.271317]}},{"type":"Feature","properties":{"id":292,"intensity":4.5},"geometry":{"type":"Point","coordinates":[-38.482648,88.056953]}},{"type":"Feature","properties":{"id":293,"intensity":9.07},"geometry":{"type":"Point","coordinates":[166.123367,89.896319]}},{"type":"Feature","properties":{"id":294,"intensity":4.65},"geometry":{"type":"Point","coordinates":[-79.102116,88.977096]}},{"type":"Feature","properties":{"id":295,"intensity":4.67},"geometry":{"type":"Point","coordinates":[14.442037,89.355376]}},{"type":"Feature","properties":{"id":296,"intensity":3.78},"geometry":{"type":"Point","coordinates":[51.794416,89.745065]}},{"type":"Feature","properties":{"id":297,"intensity":1.97},"geometry":{"type":"Point","coordinates":[51.316349,89.941569]}},{"type":"Feature","properties":{"id":298,"intensity":3.19},"geometry":{"type":"Point","coordinates":[132.198332,88.46456]}},{"type":"Feature","properties":{"id":299,"intensity":2.84},"geometry":{"type":"Point","coordinates":[179.79367,89.444833]}},{"type":"Feature","properties":{"id":300,"intensity":4.13},"geometry":{"type":"Point","coordinates":[-54.679533,89.391517]}},{"type":"Feature","properties":{"id":301,"intensity":1.68},"geometry":{"type":"Point","coordinates":[-7.963826,88.882277]}},{"type":"Feature","properties":{"id":302,"intensity":4.65},"geometry":{"type":"Point","coordinates":[103.616695,88.392967]}},{"type":"Feature","properties":{"id":303,"intensity":6.25},"geometry":{"type":"Point","coordinates":[-176.965956,88.672949]}},{"type":"Feature","properties":{"id":304,"intensity":2.24},"geometry":{"type":"Point","coordinates":[-153.696111,88.914927]}},{"type":"Feature","properties":{"id":305,"intensity":1.53},"geometry":{"type":"Point","coordinates":[38.80168,89.809102]}},{"type":"Feature","properties":{"id":306,"intensity":10.19},"geometry":{"type":"Point","coordinates":[146.096292,89.675572]}},{"type":"Feature","properties":{"id":307,"intensity":2.42},"geometry":{"type":"Point","coordinates":[-82.576735,89.388299]}},{"type":"Feature","properties":{"id":308,"intensity":2.38},"geometry":{"type":"Point","coordinates":[84.845708,89.233584]}},{"type":"Feature","properties":{"id":309,"intensity":4.07},"geometry":{"type":"Point","coordinates":[-117.327051,88.67494]}},{"type":"Feature","properties":{"id":310,"intensity":16.31},"geometry":{"type":"Point","coordinates":[144.341809,89.96705]}},{"type":"Feature","properties":{"id":311,"intensity":6.2},"geometry":{"type":"Point","coordinates":[133.633715,89.277597]}},{"type":"Feature","properties":{"id":312,"intensity":8.14},"geometry":{"type":"Point","coordinates":[50.319942,89.819654]}},{"type":"Feature","properties":{"id":313,"intensity":3.12},"geometry":{"type":"Point","coordinates":[-169.074989,88.057598]}},{"type":"Feature","properties":{"id":314,"intensity":1.85},"geometry":{"type":"Point","coordinates":[-108.526831,89.16089]}},{"type":"Feature","properties":{"id":315,"intensity":6.64},"geometry":{"type":"Point","coordinates":[-49.829964,89.99]}},{"type":"Feature","properties":{"id":316,"intensity":7.55},"geometry":{"type":"Point","coordinates":[-164.547039,88.398461]}},{"type":"Feature","properties":{"id":317,"intensity":1.18},"geometry":{"type":"Point","coordinates":[-161.917005,88.158812]}},{"type":"Feature","properties":{"id":318,"intensity":8.57},"geometry":{"type":"Point","coordinates":[-156.766378,88.579475]}},{"type":"Feature","properties":{"id":319,"intensity":2.76},"geometry":{"type":"Point","coordinates":[61.007317,89.753813]}},{"type":"Feature","properties":{"id":320,"intensity":4.01},"geometry":{"type":"Point","coordinates":[-42.103787,89.807928]}},{"type":"Feature","properties":{"id":321,"intensity":1.85},"geometry":{"type":"Point","coordinates":[22.466522,89.57477]}},{"type":"Feature","properties":{"id":322,"intensity":1.68},"geometry":{"type":"Point","coordinates":[-160.561893,89.801981]}},{"type":"Feature","properties":{"id":323,"intensity":1.08},"geometry":{"type":"Point","coordinates":[-111.482848,89.568929]}},{"type":"Feature","properties":{"id":324,"intensity":3.25},"geometry":{"type":"Point","coordinates":[37.89691,88.464934]}},{"type":"Feature","properties":{"id":325,"intensity":4.38},"geometry":{"type":"Point","coordinates":[-5.566322,89.430531]}},{"type":"Feature","properties":{"id":326,"intensity":3.44},"geometry":{"type":"Point","coordinates":[-9.233745,89.815751]}},{"type":"Feature","properties":{"id":327,"intensity":6.95},"geometry":{"type":"Point","coordinates":[61.867988,89.710202]}},{"type":"Feature","properties":{"id":328,"intensity":3.75},"geometry":{"type":"Point","coordinates":[-135.25115,88.693414]}},{"type":"Feature","properties":{"id":329,"intensity":5.67},"geometry":{"type":"Point","coordinates":[-133.43992,89.495363]}},{"type":"Feature","properties":{"id":330,"intensity":5.39},"geometry":{"type":"Point","coordinates":[-153.80315,89.927866]}},{"type":"Feature","properties":{"id":331,"intensity":3.52},"geometry":{"type":"Point","coordinates":[93.193403,89.970846]}},{"type":"Feature","properties":{"id":332,"intensity":1.11},"geometry":{"type":"Point","coordinates":[-15.677774,88.938283]}},{"type":"Feature","properties":{"id":333,"intensity":4.35},"geometry":{"type":"Point","coordinates":[-28.583587,89.377849]}},{"type":"Feature","properties":{"id":334,"intensity":9.53},"geometry":{"type":"Point","coordinates":[171.673103,88.678939]}},{"type":"Feature","properties":{"id":335,"intensity":4.07},"geometry":{"type":"Point","coordinates":[128.535356,88.799889]}},{"type":"Feature","properties":{"id":336,"intensity":3.26},"geometry":{"type":"Point","coordinates":[131.162533,86.526463]}},{"type":"Feature","properties":{"id":337,"intensity":2.7},"geometry":{"type":"Point","coordinates":[-2.756891,88.831197]}},{"type":"Feature","properties":{"id":338,"intensity":1.12},"geometry":{"type":"Point","coordinates":[-178.419934,87.898575]}},{"type":"Feature","properties":{"id":339,"intensity":3.41},"geometry":{"type":"Point","coordinates":[-14.043178,87.879748]}},{"type":"Feature","properties":{"id":340,"intensity":8.13},"geometry":{"type":"Point","coordinates":[-16.182628,89.005843]}},{"type":"Feature","properties":{"id":341,"intensity":2.56},"geometry":{"type":"Point","coordinates":[33.713777,87.762319]}},{"type":"Feature","properties":{"id":342,"intensity":2.57},"geometry":{"type":"Point","coordinates":[-23.767902,88.430959]}},{"type":"Feature","properties":{"id":343,"intensity":2.88},"geometry":{"type":"Point","coordinates":[88.661823,89.560455]}},{"type":"Feature","properties":{"id":344,"intensity":2.5},"geometry":{"type":"Point","coordinates":[52.747196,89.490684]}},{"type":"Feature","properties":{"id":345,"intensity":6.19},"geometry":{"type":"Point","coordinates":[148.299078,88.686696]}},{"type":"Feature","properties":{"id":346,"intensity":6.13},"geometry":{"type":"Point","coordinates":[42.383532,88.6933]}},{"type":"Feature","properties":{"id":347,"intensity":3.37},"geometry":{"type":"Point","coordinates":[-99.338591,89.99]}},{"type":"Feature","properties":{"id":348,"intensity":7.41},"geometry":{"type":"Point","coordinates":[145.746195,89.008017]}},{"type":"Feature","properties":{"id":349,"intensity":1.31},"geometry":{"type":"Point","coordinates":[-132.724619,88.655648]}},{"type":"Feature","properties":{"id":350,"intensity":5.56},"geometry":{"type":"Point","coordinates":[-7.787924,88.797636]}},{"type":"Feature","properties":{"id":351,"intensity":3.68},"geometry":{"type":"Point","coordinates":[-171.728007,89.824608]}},{"type":"Feature","properties":{"id":352,"intensity":7.19},"geometry":{"type":"Point","coordinates":[149.31115,89.76587]}},{"type":"Feature","properties":{"id":353,"intensity":7.69},"geometry":{"type":"Point","coordinates":[-29.031899,89.97331]}},{"type":"Feature","properties":{"id":354,"intensity":2.02},"geometry":{"type":"Point","coordinates":[-67.08034,87.748212]}},{"type":"Feature","properties":{"id":355,"intensity":4.96},"geometry":{"type":"Point","coordinates":[-166.952774,89.142904]}},{"type":"Feature","properties":{"id":356,"intensity":2.92},"geometry":{"type":"Point","coordinates":[-154.425263,89.457822]}},{"type":"Feature","properties":{"id":357,"intensity":5.14},"geometry":{"type":"Point","coordinates":[-175.526912,88.896862]}},{"type":"Feature","properties":{"id":358,"intensity":5.57},"geometry":{"type":"Point","coordinates":[172.507142,89.890065]}},{"type":"Feature","properties":{"id":359,"intensity":1.11},"geometry":{"type":"Point","coordinates":[51.979374,88.61238]}},{"type":"Feature","properties":{"id":360,"intensity":1.02},"geometry":{"type":"Point","coordinates":[-35.395164,88.551912]}},{"type":"Feature","properties":{"id":361,"intensity":1.35},"geometry":{"type":"Point","coordinates":[-128.021287,89.690835]}},{"type":"Feature","properties":{"id":362,"intensity":7.26},"geometry":{"type":"Point","coordinates":[7.00983,88.782664]}},{"type":"Feature","properties":{"id":363,"intensity":5.64},"geometry":{"type":"Point","coordinates":[-136.823943,88.177626]}},{"type":"Feature","properties":{"id":364,"intensity":6.11},"geometry":{"type":"Point","coordinates":[3.77384,89.357454]}},{"type":"Feature","properties":{"id":365,"intensity":3.07},"geometry":{"type":"Point","coordinates":[175.439658,89.977581]}},{"type":"Feature","properties":{"id":366,"intensity":3.13},"geometry":{"type":"Point","coordinates":[-57.056567,87.823699]}},{"type":"Feature","properties":{"id":367,"intensity":3.16},"geometry":{"type":"Point","coordinates":[60.453266,89.817447]}},{"type":"Feature","properties":{"id":368,"intensity":7.72},"geometry":{"type":"Point","coordinates":[-25.741294,89.693878]}},{"type":"Feature","properties":{"id":369,"intensity":4.78},"geometry":{"type":"Point","coordinates":[148.682627,89.845475]}},{"type":"Feature","properties":{"id":370,"intensity":3.89},"geometry":{"type":"Point","coordinates":[-10.855232,89.411446]}},{"type":"Feature","properties":{"id":371,"intensity":5.35},"geometry":{"type":"Point","coordinates":[31.38928,87.779668]}},{"type":"Feature","properties":{"id":372,"intensity":1.54},"geometry":{"type":"Point","coordinates":[119.980384,89.139779]}},{"type":"Feature","properties":{"id":373,"intensity":2.76},"geometry":{"type":"Point","coordinates":[24.615285,89.779665]}},{"type":"Feature","properties":{"id":374,"intensity":8.59},"geometry":{"type":"Point","coordinates":[-71.205354,88.991755]}},{"type":"Feature","properties":{"id":375,"intensity":3.39},"geometry":{"type":"Point","coordinates":[-105.69657,89.583926]}},{"type":"Feature","properties":{"id":376,"intensity":6.98},"geometry":{"type":"Point","coordinates":[-61.429112,88.406717]}},{"type":"Feature","properties":{"id":377,"intensity":2.99},"geometry":{"type":"Point","coordinates":[-124.920527,88.741401]}},{"type":"Feature","properties":{"id":378,"intensity":13.13},"geometry":{"type":"Point","coordinates":[138.802517,89.835892]}},{"type":"Feature","properties":{"id":379,"intensity":1.47},"geometry":{"type":"Point","coordinates":[12.01326,89.598453]}},{"type":"Feature","properties":{"id":380,"intensity":4.04},"geometry":{"type":"Point","coordinates":[-70.173213,89.60529]}},{"type":"Feature","properties":{"id":381,"intensity":6.85},"geometry":{"type":"Point","coordinates":[153.850607,89.27194]}},{"type":"Feature","properties":{"id":382,"intensity":4.28},"geometry":{"type":"Point","coordinates":[1.775599,86.74546]}},{"type":"Feature","properties":{"id":383,"intensity":3.82},"geometry":{"type":"Point","coordinates":[7.724926,89.914387]}},{"type":"Feature","properties":{"id":384,"intensity":9.03},"geometry":{"type":"Point","coordinates":[-154.459754,89.69594]}},{"type":"Feature","properties":{"id":385,"intensity":2.62},"geometry":{"type":"Point","coordinates":[-129.114223,88.988232]}},{"type":"Feature","properties":{"id":386,"intensity":4.13},"geometry":{"type":"Point","coordinates":[64.619269,89.748327]}},{"type":"Feature","properties":{"id":387,"intensity":7.63},"geometry":{"type":"Point","coordinates":[-109.815315,88.503203]}},{"type":"Feature","properties":{"id":388,"intensity":4.62},"geometry":{"type":"Point","coordinates":[-9.76074,88.690937]}},{"type":"Feature","properties":{"id":389,"intensity":5.99},"geometry":{"type":"Point","coordinates":[-108.593894,88.373002]}},{"type":"Feature","properties":{"id":390,"intensity":9.83},"geometry":{"type":"Point","coordinates":[139.177125,88.402137]}},{"type":"Feature","properties":{"id":391,"intensity":4.6},"geometry":{"type":"Point","coordinates":[115.211218,89.243334]}},{"type":"Feature","properties":{"id":392,"intensity":5.36},"geometry":{"type":"Point","coordinates":[-63.899486,89.687099]}},{"type":"Feature","properties":{"id":393,"intensity":1.16},"geometry":{"type":"Point","coordinates":[138.258559,89.362096]}},{"type":"Feature","properties":{"id":394,"intensity":1.05},"geometry":{"type":"Point","coordinates":[119.785535,89.615422]}},{"type":"Feature","properties":{"id":395,"intensity":6.49},"geometry":{"type":"Point","coordinates":[14.094118,89.951441]}},{"type":"Feature","properties":{"id":396,"intensity":4.75},"geometry":{"type":"Point","coordinates":[45.265642,88.807086]}},{"type":"Feature","properties":{"id":397,"intensity":3.63},"geometry":{"type":"Point","coordinates":[45.119483,89.972529]}},{"type":"Feature","properties":{"id":398,"intensity":8.66},"geometry":{"type":"Point","coordinates":[142.550065,89.540184]}},{"type":"Feature","properties":{"id":399,"intensity":7.92},"geometry":{"type":"Point","coordinates":[-95.861416,89.379287]}},{"type":"Feature","properties":{"id":400,"intensity":2.48},"geometry":{"type":"Point","coordinates":[139.485715,89.347142]}},{"type":"Feature","properties":{"id":401,"intensity":1.18},"geometry":{"type":"Point","coordinates":[78.150841,87.445057]}},{"type":"Feature","properties":{"id":402,"intensity":2.5},"geometry":{"type":"Point","coordinates":[106.631502,89.525043]}},{"type":"Feature","properties":{"id":403,"intensity":1.51},"geometry":{"type":"Point","coordinates":[133.522129,88.155087]}},{"type":"Feature","properties":{"id":404,"intensity":4.3},"geometry":{"type":"Point","coordinates":[-1.297638,89.522817]}},{"type":"Feature","properties":{"id":405,"intensity":1.11},"geometry":{"type":"Point","coordinates":[54.025509,88.260946]}},{"type":"Feature","properties":{"id":406,"intensity":10.43},"geometry":{"type":"Point","coordinates":[172.707636,89.77575]}},{"type":"Feature","properties":{"id":407,"intensity":3.32},"geometry":{"type":"Point","coordinates":[57.512896,88.800663]}},{"type":"Feature","properties":{"id":408,"intensity":6.95},"geometry":{"type":"Point","coordinates":[108.803022,88.133048]}},{"type":"Feature","properties":{"id":409,"intensity":9.38},"geometry":{"type":"Point","coordinates":[111.081261,88.981643]}},{"type":"Feature","properties":{"id":410,"intensity":4.9},"geometry":{"type":"Point","coordinates":[-118.345652,89.406003]}},{"type":"Feature","properties":{"id":411,"intensity":1.31},"geometry":{"type":"Point","coordinates":[-41.773615,89.48758]}},{"type":"Feature","properties":{"id":412,"intensity":5.03},"geometry":{"type":"Point","coordinates":[-130.653485,89.216214]}},{"type":"Feature","properties":{"id":413,"intensity":3.31},"geometry":{"type":"Point","coordinates":[-152.825781,89.041255]}},{"type":"Feature","properties":{"id":414,"intensity":3.89},"geometry":{"type":"Point","coordinates":[-143.001976,89.509639]}},{"type":"Feature","properties":{"id":415,"intensity":2.15},"geometry":{"type":"Point","coordinates":[-67.539396,89.235552]}},{"type":"Feature","properties":{"id":416,"intensity":2.99},"geometry":{"type":"Point","coordinates":[149.936299,89.157988]}},{"type":"Feature","properties":{"id":417,"intensity":5.56},"geometry":{"type":"Point","coordinates":[25.901535,88.563059]}},{"type":"Feature","properties":{"id":418,"intensity":11.64},"geometry":{"type":"Point","coordinates":[171.500127,89.658763]}},{"type":"Feature","properties":{"id":419,"intensity":2.23},"geometry":{"type":"Point","coordinates":[-23.915676,89.132979]}},{"type":"Feature","properties":{"id":420,"intensity":2.66},"geometry":{"type":"Point","coordinates":[-156.179586,87.055668]}},{"type":"Feature","properties":{"id":421,"intensity":2.48},"geometry":{"type":"Point","coordinates":[29.328656,89.020875]}},{"type":"Feature","properties":{"id":422,"intensity":4.42},"geometry":{"type":"Point","coordinates":[115.234183,89.795441]}},{"type":"Feature","properties":{"id":423,"intensity":7.18},"geometry":{"type":"Point","coordinates":[-28.909508,88.978176]}},{"type":"Feature","properties":{"id":424,"intensity":1.45},"geometry":{"type":"Point","coordinates":[-119.047501,89.531387]}},{"type":"Feature","properties":{"id":425,"intensity":4.17},"geometry":{"type":"Point","coordinates":[172.718918,88.556277]}},{"type":"Feature","properties":{"id":426,"intensity":2.8},"geometry":{"type":"Point","coordinates":[126.547874,89.461949]}},{"type":"Feature","properties":{"id":427,"intensity":1.55},"geometry":{"type":"Point","coordinates":[169.994661,88.463649]}},{"type":"Feature","properties":{"id":428,"intensity":2.54},"geometry":{"type":"Point","coordinates":[65.596093,86.875801]}},{"type":"Feature","properties":{"id":429,"intensity":6.43},"geometry":{"type":"Point","coordinates":[53.683004,87.887268]}},{"type":"Feature","properties":{"id":430,"intensity":2.86},"geometry":{"type":"Point","coordinates":[92.892155,88.511474]}},{"type":"Feature","properties":{"id":431,"intensity":15.1},"geometry":{"type":"Point","coordinates":[-178.918008,89.592111]}},{"type":"Feature","properties":{"id":432,"intensity":6.16},"geometry":{"type":"Point","coordinates":[85.481235,89.286558]}},{"type":"Feature","properties":{"id":433,"intensity":2.59},"geometry":{"type":"Point","coordinates":[-153.212849,89.339382]}},{"type":"Feature","properties":{"id":434,"intensity":2.98},"geometry":{"type":"Point","coordinates":[-142.273941,88.76841]}},{"type":"Feature","properties":{"id":435,"intensity":7.86},"geometry":{"type":"Point","coordinates":[-169.983602,89.755639]}},{"type":"Feature","properties":{"id":436,"intensity":2.26},"geometry":{"type":"Point","coordinates":[-109.450468,89.869566]}},{"type":"Feature","properties":{"id":437,"intensity":2.76},"geometry":{"type":"Point","coordinates":[24.82073,89.753194]}},{"type":"Feature","properties":{"id":438,"intensity":6.62},"geometry":{"type":"Point","coordinates":[126.407132,88.960525]}},{"type":"Feature","properties":{"id":439,"intensity":5.41},"geometry":{"type":"Point","coordinates":[127.752448,89.902449]}},{"type":"Feature","properties":{"id":440,"intensity":6.69},"geometry":{"type":"Point","coordinates":[44.183083,87.749713]}},{"type":"Feature","properties":{"id":441,"intensity":3.7},"geometry":{"type":"Point","coordinates":[68.481112,89.517658]}},{"type":"Feature","properties":{"id":442,"intensity":2.23},"geometry":{"type":"Point","coordinates":[68.407792,89.654654]}},{"type":"Feature","properties":{"id":443,"intensity":5.2},"geometry":{"type":"Point","coordinates":[-7.141047,89.578573]}},{"type":"Feature","properties":{"id":444,"intensity":1.7},"geometry":{"type":"Point","coordinates":[-92.766629,89.056893]}},{"type":"Feature","properties":{"id":445,"intensity":5.22},"geometry":{"type":"Point","coordinates":[62.606833,88.978032]}},{"type":"Feature","properties":{"id":446,"intensity":2.83},"geometry":{"type":"Point","coordinates":[172.266709,88.590352]}},{"type":"Feature","properties":{"id":447,"intensity":4.34},"geometry":{"type":"Point","coordinates":[-80.628561,89.801779]}},{"type":"Feature","properties":{"id":448,"intensity":5.5},"geometry":{"type":"Point","coordinates":[-126.415101,88.143043]}},{"type":"Feature","properties":{"id":449,"intensity":6.86},"geometry":{"type":"Point","coordinates":[-146.95918,88.186404]}},{"type":"Feature","properties":{"id":450,"intensity":2.2},"geometry":{"type":"Point","coordinates":[-69.4306,89.97093]}},{"type":"Feature","properties":{"id":451,"intensity":3.31},"geometry":{"type":"Point","coordinates":[34.408832,87.64941]}},{"type":"Feature","properties":{"id":452,"intensity":4.25},"geometry":{"type":"Point","coordinates":[69.779831,88.671568]}},{"type":"Feature","properties":{"id":453,"intensity":3.95},"geometry":{"type":"Point","coordinates":[-101.075048,88.482369]}},{"type":"Feature","properties":{"id":454,"intensity":7.51},"geometry":{"type":"Point","coordinates":[10.419009,89.28081]}},{"type":"Feature","properties":{"id":455,"intensity":2.17},"geometry":{"type":"Point","coordinates":[-59.596356,89.477579]}},{"type":"Feature","properties":{"id":456,"intensity":6.8},"geometry":{"type":"Point","coordinates":[28.305437,88.966134]}},{"type":"Feature","properties":{"id":457,"intensity":5.3},"geometry":{"type":"Point","coordinates":[-124.05932,87.349514]}},{"type":"Feature","properties":{"id":458,"intensity":12.21},"geometry":{"type":"Point","coordinates":[-105.129378,89.307778]}},{"type":"Feature","properties":{"id":459,"intensity":4.78},"geometry":{"type":"Point","coordinates":[-56.630444,89.513689]}},{"type":"Feature","properties":{"id":460,"intensity":8.77},"geometry":{"type":"Point","coordinates":[61.216202,89.555059]}},{"type":"Feature","properties":{"id":461,"intensity":7.95},"geometry":{"type":"Point","coordinates":[-11.021345,88.654657]}},{"type":"Feature","properties":{"id":462,"intensity":1.47},"geometry":{"type":"Point","coordinates":[53.4942,89.32448]}},{"type":"Feature","properties":{"id":463,"intensity":5.1},"geometry":{"type":"Point","coordinates":[34.848953,88.761434]}},{"type":"Feature","properties":{"id":464,"intensity":6.25},"geometry":{"type":"Point","coordinates":[-177.276065,89.83333]}},{"type":"Feature","properties":{"id":465,"intensity":11.27},"geometry":{"type":"Point","coordinates":[-36.070934,89.098018]}},{"type":"Feature","properties":{"id":466,"intensity":4.45},"geometry":{"type":"Point","coordinates":[53.223301,87.618304]}},{"type":"Feature","properties":{"id":467,"intensity":3.11},"geometry":{"type":"Point","coordinates":[127.681511,88.207685]}},{"type":"Feature","properties":{"id":468,"intensity":1.53},"geometry":{"type":"Point","coordinates":[-21.154395,89.133772]}},{"type":"Feature","properties":{"id":469,"intensity":6.54},"geometry":{"type":"Point","coordinates":[-20.793434,89.076919]}},{"type":"Feature","properties":{"id":470,"intensity":1.5},"geometry":{"type":"Point","coordinates":[56.587947,88.406722]}},{"type":"Feature","properties":{"id":471,"intensity":8.89},"geometry":{"type":"Point","coordinates":[-120.327188,89.131618]}},{"type":"Feature","properties":{"id":472,"intensity":4.67},"geometry":{"type":"Point","coordinates":[-153.067757,88.109994]}},{"type":"Feature","properties":{"id":473,"intensity":2.39},"geometry":{"type":"Point","coordinates":[-19.647986,89.916283]}},{"type":"Feature","properties":{"id":474,"intensity":6.77},"geometry":{"type":"Point","coordinates":[-50.009327,89.854837]}},{"type":"Feature","properties":{"id":475,"intensity":4.49},"geometry":{"type":"Point","coordinates":[79.208172,89.910962]}},{"type":"Feature","properties":{"id":476,"intensity":3.46},"geometry":{"type":"Point","coordinates":[87.850759,87.25103]}},{"type":"Feature","properties":{"id":477,"intensity":6.36},"geometry":{"type":"Point","coordinates":[-164.020769,88.651275]}},{"type":"Feature","properties":{"id":478,"intensity":1.48},"geometry":{"type":"Point","coordinates":[56.279522,88.625416]}},{"type":"Feature","properties":{"id":479,"intensity":2.94},"geometry":{"type":"Point","coordinates":[-159.063144,88.654759]}},{"type":"Feature","properties":{"id":480,"intensity":6.36},"geometry":{"type":"Point","coordinates":[-87.836316,86.067934]}},{"type":"Feature","properties":{"id":481,"intensity":8.58},"geometry":{"type":"Point","coordinates":[-119.98868,89.744693]}},{"type":"Feature","properties":{"id":482,"intensity":3.61},"geometry":{"type":"Point","coordinates":[155.671923,88.692356]}},{"type":"Feature","properties":{"id":483,"intensity":3.64},"geometry":{"type":"Point","coordinates":[176.383611,88.569265]}},{"type":"Feature","properties":{"id":484,"intensity":4.12},"geometry":{"type":"Point","coordinates":[57.380787,88.607568]}},{"type":"Feature","properties":{"id":485,"intensity":6.94},"geometry":{"type":"Point","coordinates":[-46.179089,88.551305]}},{"type":"Feature","properties":{"id":486,"intensity":5.73},"geometry":{"type":"Point","coordinates":[-162.267605,89.964788]}},{"type":"Feature","properties":{"id":487,"intensity":4.73},"geometry":{"type":"Point","coordinates":[62.635434,89.4622]}},{"type":"Feature","properties":{"id":488,"intensity":5.06},"geometry":{"type":"Point","coordinates":[32.212021,89.23806]}},{"type":"Feature","properties":{"id":489,"intensity":5.13},"geometry":{"type":"Point","coordinates":[95.386221,89.720981]}},{"type":"Feature","properties":{"id":490,"intensity":3.05},"geometry":{"type":"Point","coordinates":[-131.665442,87.503502]}},{"type":"Feature","properties":{"id":491,"intensity":1.31},"geometry":{"type":"Point","coordinates":[-112.278655,89.176596]}},{"type":"Feature","properties":{"id":492,"intensity":4.68},"geometry":{"type":"Point","coordinates":[-167.118247,89.694661]}},{"type":"Feature","properties":{"id":493,"intensity":6.73},"geometry":{"type":"Point","coordinates":[30.678945,89.472432]}},{"type":"Feature","properties":{"id":494,"intensity":6.97},"geometry":{"type":"Point","coordinates":[47.143412,89.912962]}},{"type":"Feature","properties":{"id":495,"intensity":6.79},"geometry":{"type":"Point","coordinates":[-137.253766,88.660298]}},{"type":"Feature","properties":{"id":496,"intensity":4.14},"geometry":{"type":"Point","coordinates":[35.092141,89.323558]}},{"type":"Feature","properties":{"id":497,"intensity":1.98},"geometry":{"type":"Point","coordinates":[128.564955,88.349024]}},{"type":"Feature","properties":{"id":498,"intensity":6.71},"geometry":{"type":"Point","coordinates":[-146.462904,89.153072]}},{"type":"Feature","properties":{"id":499,"intensity":2.1},"geometry":{"type":"Point","coordinates":[-25.792413,89.335415]}},{"type":"Feature","properties":{"id":500,"intensity":3.77},"geometry":{"type":"Point","coordinates":[26.417225,88.492562]}},{"type":"Feature","properties":{"id":501,"intensity":3.61},"geometry":{"type":"Point","coordinates":[24.658997,88.729651]}},{"type":"Feature","properties":{"id":502,"intensity":4.55},"geometry":{"type":"Point","coordinates":[98.95903,89.292538]}},{"type":"Feature","properties":{"id":503,"intensity":7.31},"geometry":{"type":"Point","coordinates":[31.952365,88.07004]}},{"type":"Feature","properties":{"id":504,"intensity":2.45},"geometry":{"type":"Point","coordinates":[-46.744759,89.202736]}},{"type":"Feature","properties":{"id":505,"intensity":3.86},"geometry":{"type":"Point","coordinates":[-171.11179,89.011446]}},{"type":"Feature","properties":{"id":506,"intensity":1.41},"geometry":{"type":"Point","coordinates":[-97.570585,88.587384]}},{"type":"Feature","properties":{"id":507,"intensity":1.13},"geometry":{"type":"Point","coordinates":[-24.15655,89.120198]}},{"type":"Feature","properties":{"id":508,"intensity":1.59},"geometry":{"type":"Point","coordinates":[-27.374699,88.303591]}},{"type":"Feature","properties":{"id":509,"intensity":2.54},"geometry":{"type":"Point","coordinates":[171.401077,87.746379]}},{"type":"Feature","properties":{"id":510,"intensity":2.16},"geometry":{"type":"Point","coordinates":[14.080921,88.64296]}},{"type":"Feature","properties":{"id":511,"intensity":5.98},"geometry":{"type":"Point","coordinates":[132.419017,88.769699]}},{"type":"Feature","properties":{"id":512,"intensity":6.44},"geometry":{"type":"Point","coordinates":[-73.596578,89.225521]}},{"type":"Feature","properties":{"id":513,"intensity":8.19},"geometry":{"type":"Point","coordinates":[163.350265,89.878662]}},{"type":"Feature","properties":{"id":514,"intensity":7.07},"geometry":{"type":"Point","coordinates":[-168.423248,88.219618]}},{"type":"Feature","properties":{"id":515,"intensity":1.82},"geometry":{"type":"Point","coordinates":[-12.694191,89.91212]}},{"type":"Feature","properties":{"id":516,"intensity":2.02},"geometry":{"type":"Point","coordinates":[150.568366,89.130687]}},{"type":"Feature","properties":{"id":517,"intensity":8.48},"geometry":{"type":"Point","coordinates":[44.992998,88.969462]}},{"type":"Feature","properties":{"id":518,"intensity":1.1},"geometry":{"type":"Point","coordinates":[-103.741824,89.183298]}},{"type":"Feature","properties":{"id":519,"intensity":10.53},"geometry":{"type":"Point","coordinates":[-63.936424,89.91877]}},{"type":"Feature","properties":{"id":520,"intensity":5.25},"geometry":{"type":"Point","coordinates":[157.627705,89.41092]}},{"type":"Feature","properties":{"id":521,"intensity":4.22},"geometry":{"type":"Point","coordinates":[-95.526545,89.50641]}},{"type":"Feature","properties":{"id":522,"intensity":8.16},"geometry":{"type":"Point","coordinates":[-108.476262,89.118758]}},{"type":"Feature","properties":{"id":523,"intensity":3.51},"geometry":{"type":"Point","coordinates":[142.71228,89.655386]}},{"type":"Feature","properties":{"id":524,"intensity":2.91},"geometry":{"type":"Point","coordinates":[16.798811,88.875531]}},{"type":"Feature","properties":{"id":525,"intensity":6.38},"geometry":{"type":"Point","coordinates":[131.710112,89.552097]}},{"type":"Feature","properties":{"id":526,"intensity":2.01},"geometry":{"type":"Point","coordinates":[-104.961113,89.690557]}},{"type":"Feature","properties":{"id":527,"intensity":1.32},"geometry":{"type":"Point","coordinates":[113.742166,89.953523]}},{"type":"Feature","properties":{"id":528,"intensity":9.86},"geometry":{"type":"Point","coordinates":[113.163938,89.973066]}},{"type":"Feature","properties":{"id":529,"intensity":1.54},"geometry":{"type":"Point","coordinates":[140.669064,88.448214]}},{"type":"Feature","properties":{"id":530,"intensity":6.3},"geometry":{"type":"Point","coordinates":[-75.88037,88.222312]}},{"type":"Feature","properties":{"id":531,"intensity":1.03},"geometry":{"type":"Point","coordinates":[46.09416,88.850931]}},{"type":"Feature","properties":{"id":532,"intensity":4.31},"geometry":{"type":"Point","coordinates":[161.763041,89.628346]}},{"type":"Feature","properties":{"id":533,"intensity":4.52},"geometry":{"type":"Point","coordinates":[86.344068,89.355795]}},{"type":"Feature","properties":{"id":534,"intensity":2.39},"geometry":{"type":"Point","coordinates":[52.64982,89.24209]}},{"type":"Feature","properties":{"id":535,"intensity":3.86},"geometry":{"type":"Point","coordinates":[10.310785,89.123255]}},{"type":"Feature","properties":{"id":536,"intensity":3.14},"geometry":{"type":"Point","coordinates":[-14.976812,87.898811]}},{"type":"Feature","properties":{"id":537,"intensity":13.8},"geometry":{"type":"Point","coordinates":[178.058041,87.728146]}},{"type":"Feature","properties":{"id":538,"intensity":6.97},"geometry":{"type":"Point","coordinates":[155.596721,88.842179]}},{"type":"Feature","properties":{"id":539,"intensity":1.95},"geometry":{"type":"Point","coordinates":[89.565198,89.731662]}},{"type":"Feature","properties":{"id":540,"intensity":1.75},"geometry":{"type":"Point","coordinates":[33.001312,88.964912]}},{"type":"Feature","properties":{"id":541,"intensity":1.97},"geometry":{"type":"Point","coordinates":[158.492395,89.836226]}},{"type":"Feature","properties":{"id":542,"intensity":1.42},"geometry":{"type":"Point","coordinates":[172.101836,88.998424]}},{"type":"Feature","properties":{"id":543,"intensity":4.35},"geometry":{"type":"Point","coordinates":[113.697167,88.224418]}},{"type":"Feature","properties":{"id":544,"intensity":5.28},"geometry":{"type":"Point","coordinates":[-29.112316,89.350857]}},{"type":"Feature","properties":{"id":545,"intensity":11.34},"geometry":{"type":"Point","coordinates":[63.946735,88.274769]}},{"type":"Feature","properties":{"id":546,"intensity":6.09},"geometry":{"type":"Point","coordinates":[-32.924088,88.865689]}},{"type":"Feature","properties":{"id":547,"intensity":6.32},"geometry":{"type":"Point","coordinates":[-110.317472,89.895883]}},{"type":"Feature","properties":{"id":548,"intensity":4.31},"geometry":{"type":"Point","coordinates":[-55.001557,89.396251]}},{"type":"Feature","properties":{"id":549,"intensity":2.13},"geometry":{"type":"Point","coordinates":[-4.041241,88.969081]}},{"type":"Feature","properties":{"id":550,"intensity":6.84},"geometry":{"type":"Point","coordinates":[-7.453224,89.375503]}},{"type":"Feature","properties":{"id":551,"intensity":2.4},"geometry":{"type":"Point","coordinates":[-43.905643,89.953149]}},{"type":"Feature","properties":{"id":552,"intensity":3.26},"geometry":{"type":"Point","coordinates":[92.02449,89.748299]}},{"type":"Feature","properties":{"id":553,"intensity":5.44},"geometry":{"type":"Point","coordinates":[165.898972,89.575142]}},{"type":"Feature","properties":{"id":554,"intensity":8.32},"geometry":{"type":"Point","coordinates":[-4.877893,89.707166]}},{"type":"Feature","properties":{"id":555,"intensity":2.3},"geometry":{"type":"Point","coordinates":[-0.533899,88.823948]}},{"type":"Feature","properties":{"id":556,"intensity":2.59},"geometry":{"type":"Point","coordinates":[-127.129471,89.053912]}},{"type":"Feature","properties":{"id":557,"intensity":5.33},"geometry":{"type":"Point","coordinates":[-104.316502,89.331428]}},{"type":"Feature","properties":{"id":558,"intensity":4.03},"geometry":{"type":"Point","coordinates":[-25.656014,88.78756]}},{"type":"Feature","properties":{"id":559,"intensity":4.1},"geometry":{"type":"Point","coordinates":[-27.080007,89.953206]}},{"type":"Feature","properties":{"id":560,"intensity":4.9},"geometry":{"type":"Point","coordinates":[152.569576,89.728269]}},{"type":"Feature","properties":{"id":561,"intensity":4.64},"geometry":{"type":"Point","coordinates":[159.353568,89.115031]}},{"type":"Feature","properties":{"id":562,"intensity":2.07},"geometry":{"type":"Point","coordinates":[54.979869,89.347368]}},{"type":"Feature","properties":{"id":563,"intensity":6.44},"geometry":{"type":"Point","coordinates":[145.271626,88.512464]}},{"type":"Feature","properties":{"id":564,"intensity":4.19},"geometry":{"type":"Point","coordinates":[118.906006,88.894727]}},{"type":"Feature","properties":{"id":565,"intensity":3.34},"geometry":{"type":"Point","coordinates":[53.825365,86.929749]}},{"type":"Feature","properties":{"id":566,"intensity":8.43},"geometry":{"type":"Point","coordinates":[27.447584,89.196622]}},{"type":"Feature","properties":{"id":567,"intensity":7.09},"geometry":{"type":"Point","coordinates":[-156.158,89.883864]}},{"type":"Feature","properties":{"id":568,"intensity":4.83},"geometry":{"type":"Point","coordinates":[-100.142208,89.012681]}},{"type":"Feature","properties":{"id":569,"intensity":6.65},"geometry":{"type":"Point","coordinates":[90.247589,88.973778]}},{"type":"Feature","properties":{"id":570,"intensity":6.45},"geometry":{"type":"Point","coordinates":[34.442625,89.696531]}},{"type":"Feature","properties":{"id":571,"intensity":1.79},"geometry":{"type":"Point","coordinates":[113.397244,89.09141]}},{"type":"Feature","properties":{"id":572,"intensity":6.5},"geometry":{"type":"Point","coordinates":[2.494298,88.060203]}},{"type":"Feature","properties":{"id":573,"intensity":4.24},"geometry":{"type":"Point","coordinates":[-139.14175,89.757795]}},{"type":"Feature","properties":{"id":574,"intensity":3.17},"geometry":{"type":"Point","coordinates":[172.576263,89.365937]}},{"type":"Feature","properties":{"id":575,"intensity":3.66},"geometry":{"type":"Point","coordinates":[-147.926,88.820547]}},{"type":"Feature","properties":{"id":576,"intensity":2.84},"geometry":{"type":"Point","coordinates":[-80.691389,89.765688]}},{"type":"Feature","properties":{"id":577,"intensity":10.18},"geometry":{"type":"Point","coordinates":[-174.825319,88.599326]}},{"type":"Feature","properties":{"id":578,"intensity":10.24},"geometry":{"type":"Point","coordinates":[45.341607,89.024736]}},{"type":"Feature","properties":{"id":579,"intensity":3.01},"geometry":{"type":"Point","coordinates":[-11.670111,88.18344]}},{"type":"Feature","properties":{"id":580,"intensity":3.21},"geometry":{"type":"Point","coordinates":[32.299532,89.360297]}},{"type":"Feature","properties":{"id":581,"intensity":6.44},"geometry":{"type":"Point","coordinates":[-165.544796,88.277514]}},{"type":"Feature","properties":{"id":582,"intensity":3.21},"geometry":{"type":"Point","coordinates":[-110.947303,89.417055]}},{"type":"Feature","properties":{"id":583,"intensity":3.51},"geometry":{"type":"Point","coordinates":[-167.874536,89.497411]}},{"type":"Feature","properties":{"id":584,"intensity":2.94},"geometry":{"type":"Point","coordinates":[118.107551,89.913164]}},{"type":"Feature","properties":{"id":585,"intensity":3.63},"geometry":{"type":"Point","coordinates":[56.16393,89.64366]}},{"type":"Feature","properties":{"id":586,"intensity":5.25},"geometry":{"type":"Point","coordinates":[177.826976,89.892873]}},{"type":"Feature","properties":{"id":587,"intensity":2.61},"geometry":{"type":"Point","coordinates":[-145.191984,89.706636]}},{"type":"Feature","properties":{"id":588,"intensity":6.25},"geometry":{"type":"Point","coordinates":[-114.346663,88.767192]}},{"type":"Feature","properties":{"id":589,"intensity":8.84},"geometry":{"type":"Point","coordinates":[22.262024,89.813729]}},{"type":"Feature","properties":{"id":590,"intensity":1.22},"geometry":{"type":"Point","coordinates":[111.992499,88.958574]}},{"type":"Feature","properties":{"id":591,"intensity":3.31},"geometry":{"type":"Point","coordinates":[-118.926361,89.077659]}},{"type":"Feature","properties":{"id":592,"intensity":5.76},"geometry":{"type":"Point","coordinates":[69.394655,88.124981]}},{"type":"Feature","properties":{"id":593,"intensity":1.97},"geometry":{"type":"Point","coordinates":[-138.397665,88.82428]}},{"type":"Feature","properties":{"id":594,"intensity":8.55},"geometry":{"type":"Point","coordinates":[-121.180941,89.033231]}},{"type":"Feature","properties":{"id":595,"intensity":5.94},"geometry":{"type":"Point","coordinates":[-179.026556,89.119964]}},{"type":"Feature","properties":{"id":596,"intensity":11.24},"geometry":{"type":"Point","coordinates":[-40.822975,89.622746]}},{"type":"Feature","properties":{"id":597,"intensity":1.52},"geometry":{"type":"Point","coordinates":[-168.645327,89.229588]}},{"type":"Feature","properties":{"id":598,"intensity":1.71},"geometry":{"type":"Point","coordinates":[-106.858339,89.767835]}},{"type":"Feature","properties":{"id":599,"intensity":9.34},"geometry":{"type":"Point","coordinates":[73.544411,87.847547]}}]}