{"type":"FeatureCollection","features":[{"type":"Feature","properties":{"name":"Pole crossing"},"geometry":{"type":"LineString","coordinates":[[-120,84],[-120,88],[60,88],[60,84]]}},{"type":"Feature","properties":{"name":"86.5N ring"},"geometry":{"type":"LineString","coordinates":[[-180,86.5],[-165,86.5],[-150,86.5],[-135,86.5],[-120,86.5],[-105,86.5],[-90,86.5],[-75,86.5],[-60,86.5],[-45,86.5],[-30,86.5],[-15,86.5],[0,86.5],[15,86.5],[30,86.5],[45,86.5],[60,86.5],[75,86.5],[90,86.5],[105,86.5],[120,86.5],[135,86.5],[150,86.5],[165,86.5],[180,86.5]]}}]}